{"type":"Topology","objects":{"data":{"geometries":[{"properties":{"SA2 Code":"701021020","SA2 Name":"Leanyer","SA3 Name":"Darwin Suburbs","Area sq km":2.5,"State":"Northern Territory","Map Location":"Leanyer, Northern Territory, Australia"},"type":"Polygon","arcs":[[-3,0]],"id":"feature_00"},{"properties":{"SA2 Code":"701021021","SA2 Name":"Lyons (NT)","SA3 Name":"Darwin Suburbs","Area sq km":7.04,"State":"Northern Territory","Map Location":"Lyons (NT), Northern Territory, Australia"},"type":"Polygon","arcs":[[-12,1,2,3]],"id":"feature_01"},{"properties":{"SA2 Code":"701021022","SA2 Name":"Malak - Marrara","SA3 Name":"Darwin Suburbs","Area sq km":4.83,"State":"Northern Territory","Map Location":"Malak - Marrara, Northern Territory, Australia"},"type":"Polygon","arcs":[[-80,4,-54,5,-74,6]],"id":"feature_02"},{"properties":{"SA2 Code":"701021023","SA2 Name":"Millner","SA3 Name":"Darwin Suburbs","Area sq km":1.47,"State":"Northern Territory","Map Location":"Millner, Northern Territory, Australia"},"type":"Polygon","arcs":[[7]],"id":"feature_03"},{"properties":{"SA2 Code":"701021024","SA2 Name":"Moil","SA3 Name":"Darwin Suburbs","Area sq km":1.04,"State":"Northern Territory","Map Location":"Moil, Northern Territory, Australia"},"type":"Polygon","arcs":[[-14,8]],"id":"feature_04"},{"properties":{"SA2 Code":"701021025","SA2 Name":"Nightcliff","SA3 Name":"Darwin Suburbs","Area sq km":1.45,"State":"Northern Territory","Map Location":"Nightcliff, Northern Territory, Australia"},"type":"Polygon","arcs":[[9]],"id":"feature_05"},{"properties":{"SA2 Code":"701021026","SA2 Name":"Rapid Creek","SA3 Name":"Darwin Suburbs","Area sq km":1.92,"State":"Northern Territory","Map Location":"Rapid Creek, Northern Territory, Australia"},"type":"Polygon","arcs":[[10]],"id":"feature_06"},{"properties":{"SA2 Code":"701021027","SA2 Name":"Tiwi","SA3 Name":"Darwin Suburbs","Area sq km":3.12,"State":"Northern Territory","Map Location":"Tiwi, Northern Territory, Australia"},"type":"Polygon","arcs":[[11,12]],"id":"feature_07"},{"properties":{"SA2 Code":"701021028","SA2 Name":"Wagaman","SA3 Name":"Darwin Suburbs","Area sq km":0.84,"State":"Northern Territory","Map Location":"Wagaman, Northern Territory, Australia"},"type":"Polygon","arcs":[[13,14]],"id":"feature_08"},{"properties":{"SA2 Code":"701021029","SA2 Name":"Wanguri","SA3 Name":"Darwin Suburbs","Area sq km":0.89,"State":"Northern Territory","Map Location":"Wanguri, Northern Territory, Australia"},"type":"Polygon","arcs":[[15]],"id":"feature_09"},{"properties":{"SA2 Code":"701021030","SA2 Name":"Wulagi","SA3 Name":"Darwin Suburbs","Area sq km":1.26,"State":"Northern Territory","Map Location":"Wulagi, Northern Territory, Australia"},"type":"Polygon","arcs":[[16]],"id":"feature_10"},{"properties":{"SA2 Code":"701031031","SA2 Name":"Howard Springs","SA3 Name":"Litchfield","Area sq km":118.02,"State":"Northern Territory","Map Location":"Howard Springs, Northern Territory, Australia"},"type":"Polygon","arcs":[[-31,17,-22,18]],"id":"feature_11"},{"properties":{"SA2 Code":"701031032","SA2 Name":"Humpty Doo","SA3 Name":"Litchfield","Area sq km":157.42,"State":"Northern Territory","Map Location":"Humpty Doo, Northern Territory, Australia"},"type":"Polygon","arcs":[[19,-82,20,21,22,-29]],"id":"feature_12"},{"properties":{"SA2 Code":"701031033","SA2 Name":"Koolpinyah","SA3 Name":"Litchfield","Area sq km":1199.65,"State":"Northern Territory","Map Location":"Koolpinyah, Northern Territory, Australia"},"type":"MultiPolygon","arcs":[[[-176,23,-174,24,-172,25,-170,26,-84,27,28,29,30,31,-56,32,-178,33]],[[34]],[[35]],[[36]],[[37]],[[38]],[[39]],[[40]]],"id":"feature_13"},{"properties":{"SA2 Code":"701031034","SA2 Name":"Virginia","SA3 Name":"Litchfield","Area sq km":54.74,"State":"Northern Territory","Map Location":"Virginia, Northern Territory, Australia"},"type":"Polygon","arcs":[[-81,41,-103,42]],"id":"feature_14"},{"properties":{"SA2 Code":"701011005","SA2 Name":"Larrakeyah","SA3 Name":"Darwin City","Area sq km":1.95,"State":"Northern Territory","Map Location":"Larrakeyah, Northern Territory, Australia"},"type":"Polygon","arcs":[[43]],"id":"feature_15"},{"properties":{"SA2 Code":"701011006","SA2 Name":"Ludmilla - The Narrows","SA3 Name":"Darwin City","Area sq km":5.35,"State":"Northern Territory","Map Location":"Ludmilla - The Narrows, Northern Territory, Australia"},"type":"Polygon","arcs":[[-77,44,-68,45,-72,46]],"id":"feature_16"},{"properties":{"SA2 Code":"701011007","SA2 Name":"Parap","SA3 Name":"Darwin City","Area sq km":1.1,"State":"Northern Territory","Map Location":"Parap, Northern Territory, Australia"},"type":"Polygon","arcs":[[47]],"id":"feature_17"},{"properties":{"SA2 Code":"701011008","SA2 Name":"Stuart Park","SA3 Name":"Darwin City","Area sq km":1.65,"State":"Northern Territory","Map Location":"Stuart Park, Northern Territory, Australia"},"type":"Polygon","arcs":[[48]],"id":"feature_18"},{"properties":{"SA2 Code":"701011009","SA2 Name":"Woolner - Bayview - Winnellie","SA3 Name":"Darwin City","Area sq km":6.79,"State":"Northern Territory","Map Location":"Woolner - Bayview - Winnellie, Northern Territory, Australia"},"type":"Polygon","arcs":[[-59,49,-66,50]],"id":"feature_19"},{"properties":{"SA2 Code":"701021010","SA2 Name":"Alawa","SA3 Name":"Darwin Suburbs","Area sq km":1.24,"State":"Northern Territory","Map Location":"Alawa, Northern Territory, Australia"},"type":"Polygon","arcs":[[51]],"id":"feature_20"},{"properties":{"SA2 Code":"701021011","SA2 Name":"Anula","SA3 Name":"Darwin Suburbs","Area sq km":1.32,"State":"Northern Territory","Map Location":"Anula, Northern Territory, Australia"},"type":"Polygon","arcs":[[52]],"id":"feature_21"},{"properties":{"SA2 Code":"701021012","SA2 Name":"Berrimah","SA3 Name":"Darwin Suburbs","Area sq km":30.26,"State":"Northern Territory","Map Location":"Berrimah, Northern Territory, Australia"},"type":"Polygon","arcs":[[53,54,55,56,-64,57,58,59]],"id":"feature_22"},{"properties":{"SA2 Code":"701021013","SA2 Name":"Brinkin - Nakara","SA3 Name":"Darwin Suburbs","Area sq km":2.69,"State":"Northern Territory","Map Location":"Brinkin - Nakara, Northern Territory, Australia"},"type":"Polygon","arcs":[[60]],"id":"feature_23"},{"properties":{"SA2 Code":"701021014","SA2 Name":"Buffalo Creek","SA3 Name":"Darwin Suburbs","Area sq km":23.91,"State":"Northern Territory","Map Location":"Buffalo Creek, Northern Territory, Australia"},"type":"Polygon","arcs":[[61]],"id":"feature_24"},{"properties":{"SA2 Code":"701011004","SA2 Name":"Fannie Bay - The Gardens","SA3 Name":"Darwin City","Area sq km":3.92,"State":"Northern Territory","Map Location":"Fannie Bay - The Gardens, Northern Territory, Australia"},"type":"Polygon","arcs":[[62]],"id":"feature_25"},{"properties":{"SA2 Code":"701021015","SA2 Name":"Charles Darwin","SA3 Name":"Darwin Suburbs","Area sq km":17.49,"State":"Northern Territory","Map Location":"Charles Darwin, Northern Territory, Australia"},"type":"Polygon","arcs":[[63,64,65,66]],"id":"feature_26"},{"properties":{"SA2 Code":"701021016","SA2 Name":"Coconut Grove","SA3 Name":"Darwin Suburbs","Area sq km":1.42,"State":"Northern Territory","Map Location":"Coconut Grove, Northern Territory, Australia"},"type":"Polygon","arcs":[[67,68]],"id":"feature_27"},{"properties":{"SA2 Code":"701021017","SA2 Name":"East Arm","SA3 Name":"Darwin Suburbs","Area sq km":27.96,"State":"Northern Territory","Map Location":"East Arm, Northern Territory, Australia"},"type":"Polygon","arcs":[[-97,69]],"id":"feature_28"},{"properties":{"SA2 Code":"701021018","SA2 Name":"Jingili","SA3 Name":"Darwin Suburbs","Area sq km":1.32,"State":"Northern Territory","Map Location":"Jingili, Northern Territory, Australia"},"type":"Polygon","arcs":[[70]],"id":"feature_29"},{"properties":{"SA2 Code":"701011001","SA2 Name":"Darwin Airport","SA3 Name":"Darwin City","Area sq km":14.32,"State":"Northern Territory","Map Location":"Darwin Airport, Northern Territory, Australia"},"type":"Polygon","arcs":[[71,72,73,74]],"id":"feature_30"},{"properties":{"SA2 Code":"701011002","SA2 Name":"Darwin City","SA3 Name":"Darwin City","Area sq km":3.17,"State":"Northern Territory","Map Location":"Darwin City, Northern Territory, Australia"},"type":"Polygon","arcs":[[75]],"id":"feature_31"},{"properties":{"SA2 Code":"701011003","SA2 Name":"East Point","SA3 Name":"Darwin City","Area sq km":2.38,"State":"Northern Territory","Map Location":"East Point, Northern Territory, Australia"},"type":"Polygon","arcs":[[76,77]],"id":"feature_32"},{"properties":{"SA2 Code":"701021019","SA2 Name":"Karama","SA3 Name":"Darwin Suburbs","Area sq km":2.07,"State":"Northern Territory","Map Location":"Karama, Northern Territory, Australia"},"type":"Polygon","arcs":[[78,79]],"id":"feature_33"},{"properties":{"SA2 Code":"701031035","SA2 Name":"Weddell","SA3 Name":"Litchfield","Area sq km":1408.69,"State":"Northern Territory","Map Location":"Weddell, Northern Territory, Australia"},"type":"MultiPolygon","arcs":[[[80,81,82,83,84,-168,85,-166,86,-164,87]],[[88]],[[89]],[[90]],[[91]],[[92]]],"id":"feature_34"},{"properties":{"SA2 Code":"701041036","SA2 Name":"Bakewell","SA3 Name":"Palmerston","Area sq km":1.32,"State":"Northern Territory","Map Location":"Bakewell, Northern Territory, Australia"},"type":"Polygon","arcs":[[93]],"id":"feature_35"},{"properties":{"SA2 Code":"701041037","SA2 Name":"Driver","SA3 Name":"Palmerston","Area sq km":1.72,"State":"Northern Territory","Map Location":"Driver, Northern Territory, Australia"},"type":"Polygon","arcs":[[-100,94]],"id":"feature_36"},{"properties":{"SA2 Code":"701041038","SA2 Name":"Durack - Marlow Lagoon","SA3 Name":"Palmerston","Area sq km":11.72,"State":"Northern Territory","Map Location":"Durack - Marlow Lagoon, Northern Territory, Australia"},"type":"Polygon","arcs":[[-105,95,96,97]],"id":"feature_37"},{"properties":{"SA2 Code":"701041039","SA2 Name":"Gray","SA3 Name":"Palmerston","Area sq km":1.5,"State":"Northern Territory","Map Location":"Gray, Northern Territory, Australia"},"type":"Polygon","arcs":[[-110,98]],"id":"feature_38"},{"properties":{"SA2 Code":"701041040","SA2 Name":"Moulden","SA3 Name":"Palmerston","Area sq km":1.75,"State":"Northern Territory","Map Location":"Moulden, Northern Territory, Australia"},"type":"Polygon","arcs":[[99,100]],"id":"feature_39"},{"properties":{"SA2 Code":"701041041","SA2 Name":"Palmerston - North","SA3 Name":"Palmerston","Area sq km":4.77,"State":"Northern Territory","Map Location":"Palmerston - North, Northern Territory, Australia"},"type":"Polygon","arcs":[[101]],"id":"feature_40"},{"properties":{"SA2 Code":"701041042","SA2 Name":"Palmerston - South","SA3 Name":"Palmerston","Area sq km":24.98,"State":"Northern Territory","Map Location":"Palmerston - South, Northern Territory, Australia"},"type":"MultiPolygon","arcs":[[[102,103,104,105]],[[106]],[[107]]],"id":"feature_41"},{"properties":{"SA2 Code":"701041043","SA2 Name":"Rosebery - Bellamack","SA3 Name":"Palmerston","Area sq km":3.18,"State":"Northern Territory","Map Location":"Rosebery - Bellamack, Northern Territory, Australia"},"type":"Polygon","arcs":[[108]],"id":"feature_42"},{"properties":{"SA2 Code":"701041044","SA2 Name":"Woodroffe","SA3 Name":"Palmerston","Area sq km":1.6,"State":"Northern Territory","Map Location":"Woodroffe, Northern Territory, Australia"},"type":"Polygon","arcs":[[109,110]],"id":"feature_43"},{"properties":{"SA2 Code":"702011045","SA2 Name":"Charles","SA3 Name":"Alice Springs","Area sq km":16.69,"State":"Northern Territory","Map Location":"Charles, Northern Territory, Australia"},"type":"Polygon","arcs":[[-113,111]],"id":"feature_44"},{"properties":{"SA2 Code":"702011046","SA2 Name":"East Side","SA3 Name":"Alice Springs","Area sq km":25.77,"State":"Northern Territory","Map Location":"East Side, Northern Territory, Australia"},"type":"Polygon","arcs":[[112,113,-136,114,-121,115]],"id":"feature_45"},{"properties":{"SA2 Code":"702011047","SA2 Name":"Flynn (NT)","SA3 Name":"Alice Springs","Area sq km":17.06,"State":"Northern Territory","Map Location":"Flynn (NT), Northern Territory, Australia"},"type":"Polygon","arcs":[[-119,116]],"id":"feature_46"},{"properties":{"SA2 Code":"702011048","SA2 Name":"Larapinta","SA3 Name":"Alice Springs","Area sq km":58.56,"State":"Northern Territory","Map Location":"Larapinta, Northern Territory, Australia"},"type":"Polygon","arcs":[[-137,117,118,119]],"id":"feature_47"},{"properties":{"SA2 Code":"702011049","SA2 Name":"Mount Johns","SA3 Name":"Alice Springs","Area sq km":18.95,"State":"Northern Territory","Map Location":"Mount Johns, Northern Territory, Australia"},"type":"Polygon","arcs":[[120,121,122]],"id":"feature_48"},{"properties":{"SA2 Code":"702011050","SA2 Name":"Petermann - Simpson","SA3 Name":"Alice Springs","Area sq km":175248.11,"State":"Northern Territory","Map Location":"Petermann - Simpson, Northern Territory, Australia"},"type":"Polygon","arcs":[[-144,123,-130,124]],"id":"feature_49"},{"properties":{"SA2 Code":"702011051","SA2 Name":"Ross","SA3 Name":"Alice Springs","Area sq km":190.68,"State":"Northern Territory","Map Location":"Ross, Northern Territory, Australia"},"type":"Polygon","arcs":[[-134,125,-139,126]],"id":"feature_50"},{"properties":{"SA2 Code":"702011052","SA2 Name":"Sandover - Plenty","SA3 Name":"Alice Springs","Area sq km":129517.18,"State":"Northern Territory","Map Location":"Sandover - Plenty, Northern Territory, Australia"},"type":"Polygon","arcs":[[127,-153,128,129,130,-142,131,-149],[132,133,134,135,136,137,138]],"id":"feature_51"},{"properties":{"SA2 Code":"702011053","SA2 Name":"Tanami","SA3 Name":"Alice Springs","Area sq km":192662.32,"State":"Northern Territory","Map Location":"Tanami, Northern Territory, Australia"},"type":"Polygon","arcs":[[-478,139,-156,-147,140,141,142,143,144]],"id":"feature_52"},{"properties":{"SA2 Code":"702011054","SA2 Name":"Yuendumu - Anmatjere","SA3 Name":"Alice Springs","Area sq km":71845.08,"State":"Northern Territory","Map Location":"Yuendumu - Anmatjere, Northern Territory, Australia"},"type":"Polygon","arcs":[[145,146,-155,147,148]],"id":"feature_53"},{"properties":{"SA2 Code":"702021055","SA2 Name":"Barkly","SA3 Name":"Barkly","Area sq km":303169.12,"State":"Northern Territory","Map Location":"Barkly, Northern Territory, Australia"},"type":"Polygon","arcs":[[149,-393,150,-402,151,152,153,154,155,156,-476],[-161,157,-163,158]],"id":"feature_54"},{"properties":{"SA2 Code":"702021056","SA2 Name":"Tennant Creek","SA3 Name":"Barkly","Area sq km":42.06,"State":"Northern Territory","Map Location":"Tennant Creek, Northern Territory, Australia"},"type":"Polygon","arcs":[[159,160,161,162]],"id":"feature_55"},{"properties":{"SA2 Code":"702031057","SA2 Name":"Alligator","SA3 Name":"Daly - Tiwi - West Arnhem","Area sq km":33100.67,"State":"Northern Territory","Map Location":"Alligator, Northern Territory, Australia"},"type":"MultiPolygon","arcs":[[[163,164,165,166,167,168,169,170,171,172,173,174,175,176,177,178,-229,179,-399,180,-203,181,-201,182]],[[183]],[[184]],[[185]],[[186]],[[187]],[[188]],[[189]],[[190]],[[191]],[[192]],[[193]],[[194]],[[195]],[[196]],[[197]],[[198]],[[199]]],"id":"feature_56"},{"properties":{"SA2 Code":"702031058","SA2 Name":"Daly","SA3 Name":"Daly - Tiwi - West Arnhem","Area sq km":34828.07,"State":"Northern Territory","Map Location":"Daly, Northern Territory, Australia"},"type":"MultiPolygon","arcs":[[[200,201,202,203,-398,204,-459,205,-457,206,-455,207,-453,208,-466,209,-470,210,-468,211,-218,212,-216,213]],[[214]]],"id":"feature_57"},{"properties":{"SA2 Code":"702031059","SA2 Name":"Thamarrurr","SA3 Name":"Daly - Tiwi - West Arnhem","Area sq km":3373.71,"State":"Northern Territory","Map Location":"Thamarrurr, Northern Territory, Australia"},"type":"Polygon","arcs":[[215,216,217,218]],"id":"feature_58"},{"properties":{"SA2 Code":"702031060","SA2 Name":"Tiwi Islands","SA3 Name":"Daly - Tiwi - West Arnhem","Area sq km":7483.17,"State":"Northern Territory","Map Location":"Tiwi Islands, Northern Territory, Australia"},"type":"MultiPolygon","arcs":[[[219]],[[220]],[[221]],[[222]],[[223]],[[224]],[[225]],[[226]]],"id":"feature_59"},{"properties":{"SA2 Code":"702031061","SA2 Name":"West Arnhem","SA3 Name":"Daly - Tiwi - West Arnhem","Area sq km":33509.24,"State":"Northern Territory","Map Location":"West Arnhem, Northern Territory, Australia"},"type":"MultiPolygon","arcs":[[[-308,-390,227,228,229]],[[230]],[[231]],[[232]],[[233]],[[234]],[[235]],[[236]],[[237]],[[238]],[[239]],[[240]],[[241]],[[242]],[[243]],[[244]],[[245]],[[246]],[[247]],[[248]],[[249]],[[250]],[[251]],[[252]],[[253]],[[254]],[[255]],[[256]],[[257]],[[258]],[[259]]],"id":"feature_60"},{"properties":{"SA2 Code":"702041062","SA2 Name":"Anindilyakwa","SA3 Name":"East Arnhem","Area sq km":2609.04,"State":"Northern Territory","Map Location":"Anindilyakwa, Northern Territory, Australia"},"type":"MultiPolygon","arcs":[[[260]],[[261]],[[262]],[[263]],[[264]],[[265]],[[266]],[[267]],[[268]],[[269]],[[270]],[[271]],[[272]],[[273]],[[274]],[[275]],[[276]],[[277]],[[278]],[[279]],[[280]],[[281]],[[282]],[[283]],[[284]],[[285]],[[286]],[[287]],[[288]],[[289]],[[290]],[[291]],[[292]],[[293]],[[294]],[[295]],[[296]],[[297]],[[298]],[[299]],[[300]],[[301]],[[302]],[[303]],[[304]],[[305]],[[306]]],"id":"feature_61"},{"properties":{"SA2 Code":"702041063","SA2 Name":"East Arnhem","SA3 Name":"East Arnhem","Area sq km":30989.9,"State":"Northern Territory","Map Location":"East Arnhem, Northern Territory, Australia"},"type":"MultiPolygon","arcs":[[[-400,-391,307,308],[309,-388]],[[310]],[[311]],[[312]],[[313]],[[314]],[[315]],[[316]],[[317]],[[318]],[[319]],[[320]],[[321]],[[322]],[[323]],[[324]],[[325]],[[326]],[[327]],[[328]],[[329]],[[330]],[[331]],[[332]],[[333]],[[334]],[[335]],[[336]],[[337]],[[338]],[[339]],[[340]],[[341]],[[342]],[[343]],[[344]],[[345]],[[346]],[[347]],[[348]],[[349]],[[350]],[[351]],[[352]],[[353]],[[354]],[[355]],[[356]],[[357]],[[358]],[[359]],[[360]],[[361]],[[362]],[[363]],[[364]],[[365]],[[366]],[[367]],[[368]],[[369]],[[370]],[[371]],[[372]],[[373]],[[374]],[[375]],[[376]],[[377]],[[378]],[[379]],[[380]],[[381]],[[382]],[[383]],[[384]],[[385]]],"id":"feature_62"},{"properties":{"SA2 Code":"702041064","SA2 Name":"Nhulunbuy","SA3 Name":"East Arnhem","Area sq km":7.65,"State":"Northern Territory","Map Location":"Nhulunbuy, Northern Territory, Australia"},"type":"Polygon","arcs":[[386,387]],"id":"feature_63"},{"properties":{"SA2 Code":"702051065","SA2 Name":"Elsey","SA3 Name":"Katherine","Area sq km":92949.73,"State":"Northern Territory","Map Location":"Elsey, Northern Territory, Australia"},"type":"Polygon","arcs":[[388,389,390,-404,391,392,393,-474,394,-463,395,-461,396,397,398]],"id":"feature_64"},{"properties":{"SA2 Code":"702051066","SA2 Name":"Gulf","SA3 Name":"Katherine","Area sq km":92278.24,"State":"Northern Territory","Map Location":"Gulf, Northern Territory, Australia"},"type":"MultiPolygon","arcs":[[[399,400,401,402,403]],[[404]],[[405]],[[406]],[[407]],[[408]],[[409]],[[410]],[[411]],[[412]],[[413]],[[414]],[[415]],[[416]],[[417]],[[418]],[[419]],[[420]],[[421]],[[422]],[[423]],[[424]],[[425]],[[426]],[[427]],[[428]],[[429]],[[430]],[[431]],[[432]],[[433]],[[434]],[[435]],[[436]],[[437]],[[438]],[[439]],[[440]],[[441]],[[442]],[[443]],[[444]],[[445]],[[446]],[[447]],[[448]],[[449]],[[450]],[[451]]],"id":"feature_65"},{"properties":{"SA2 Code":"702051067","SA2 Name":"Katherine","SA3 Name":"Katherine","Area sq km":7416.95,"State":"Northern Territory","Map Location":"Katherine, Northern Territory, Australia"},"type":"Polygon","arcs":[[452,453,454,455,456,457,458,459,460,461,462,463,-472,464,465,466]],"id":"feature_66"},{"properties":{"SA2 Code":"702051068","SA2 Name":"Victoria River","SA3 Name":"Katherine","Area sq km":133608.84,"State":"Northern Territory","Map Location":"Victoria River, Northern Territory, Australia"},"type":"MultiPolygon","arcs":[[[467,468,469,470,471,472,473,474,475,476,477,478]],[[479]],[[480]],[[481]],[[482]],[[483]],[[484]],[[485]],[[486]],[[487]]],"id":"feature_67"}],"type":"GeometryCollection"}},"bbox":[129.00048,-25.99861,137.99905,-10.90675],"transform":{"scale":[8.998659986599867e-05,0.000150920109201092],"translate":[129.00048,-25.99861]},"arcs":[[[21118,90332],[73,-54],[-22,-59],[-163,35],[17,78]],[[20883,90462],[175,105],[109,-29],[-49,-206]],[[21118,90332],[-95,0]],[[21023,90332],[-73,0],[1,97]],[[21195,90096],[127,-44]],[[21313,90020],[-111,68]],[[20793,90136],[291,-4],[-8,32],[84,37],[76,-35]],[[20715,90201],[84,-65],[-178,-20],[0,61],[94,24]],[[20961,90195],[-39,-59],[-54,0],[12,92]],[[20521,90254],[99,-69],[-138,5],[-27,43],[66,21]],[[20548,90259],[164,24],[26,-78],[-117,-28],[-73,82]],[[20883,90462],[0,-32],[68,-1]],[[20951,90429],[-2,-106],[-214,20],[148,119]],[[20961,90195],[-81,33]],[[20880,90228],[126,26],[-45,-59]],[[20941,90318],[81,8],[-16,-72],[-66,7],[1,57]],[[21045,90251],[115,-50],[-121,-16],[-66,22],[72,44]],[[23374,89467],[-414,0]],[[22752,89273],[-125,97],[-10,-52],[-137,41],[-138,182],[-229,113],[-142,3],[-255,141],[150,0],[-1,148]],[[24200,89466],[1,-193]],[[23035,88691],[-8,343],[-301,239],[26,0]],[[22752,89273],[259,0],[-24,62],[40,11],[-67,121]],[[22960,89467],[414,-1],[-1,-193]],[[25782,90246],[65,-20],[-25,-79]],[[25740,89935],[70,-101],[69,50],[98,-10],[31,-64],[-150,1]],[[25896,89731],[131,44],[-45,-92],[177,-7],[-108,-56],[5,-53],[241,41],[30,-32],[-84,-60],[200,-27],[-19,-120],[185,22]],[[26545,89303],[84,-74],[-45,-82],[-777,-37]],[[24200,89509],[0,-43]],[[24200,89466],[-165,0],[0,-96],[-167,-1],[2,-96],[-497,0]],[[23373,89273],[1,194]],[[23374,89467],[82,0],[0,193],[-165,0],[0,32],[-82,0],[-2,354],[-415,0],[1,-226],[-77,77],[-353,0],[-1,50],[-497,-1]],[[21865,89946],[-1,96]],[[21533,90089],[-14,393],[119,-7],[-4,-87],[32,74],[363,28],[77,-46],[167,-23],[86,-98],[60,35],[10,-65],[5,63],[-31,6],[-36,-34],[-48,66],[289,-30],[112,77],[112,10],[-280,9],[30,47],[-84,27],[53,64],[243,-50],[104,6],[-104,4],[-61,59],[-143,14],[8,27],[-66,-9],[4,82],[-119,-142],[-53,24],[161,386],[34,222],[-99,101],[-107,4],[-81,44],[-111,152],[14,116],[96,60],[39,12],[11,-31],[15,42],[388,89],[67,-27],[5,-77],[150,-56],[247,86],[285,-8],[13,-133],[123,-50],[210,1],[147,90],[139,-34],[-6,-64],[72,-56],[512,-232],[-187,-96],[-132,26],[112,-32],[71,19],[13,-83],[-80,-61],[24,-60],[129,41],[161,-17],[-112,-74],[34,-47],[-24,48],[69,31],[-6,-54],[61,99],[-58,18],[-251,10],[78,59],[13,107],[375,98],[260,-105],[127,-322],[127,-74]],[[25347,90494],[-1,-74],[144,-131]],[[22581,92369],[-339,39],[238,107],[310,38],[143,-24],[2,-41],[-61,-19],[45,-24],[-338,-76]],[[22907,92295],[362,105],[327,-11],[32,-28],[-29,-62],[-85,-29],[-334,-18],[-273,43]],[[23030,92656],[603,93],[93,-91],[-263,-61],[-433,59]],[[22731,92132],[209,-72],[70,-61],[-66,-76],[-127,16],[-114,-43],[-128,-3],[-332,81],[334,150],[198,-42],[51,-49],[-25,49],[-150,48],[80,2]],[[22202,91687],[-27,42],[52,13],[39,-16],[-64,-39]],[[22347,91754],[30,1],[0,-1],[-30,0]],[[22393,91760],[52,43],[43,-13],[-8,-8],[-87,-22]],[[22193,89034],[-115,95]],[[22126,89186],[226,48],[15,234],[122,-114],[128,-36],[0,52],[37,-16],[362,-302],[19,-361]],[[20374,89751],[-6,-48],[-139,3],[29,-13],[-26,2],[-29,13],[-37,38],[88,46],[120,-41]],[[20505,90014],[-75,32],[77,41]],[[20621,90087],[1,-89]],[[20772,89939],[-207,-33],[-41,63],[-73,0]],[[20455,89928],[151,-26],[-155,-73],[-37,17],[41,82]],[[20448,89815],[66,35],[57,-98],[-133,-5],[10,68]],[[21152,89846],[-131,43],[-263,1]],[[20708,89890],[8,-69],[-260,23],[226,79],[522,20],[-52,-28]],[[20727,90261],[50,9],[133,-17],[-172,-48],[-11,56]],[[20973,90207],[101,-26],[10,-49],[-162,4],[51,71]],[[21313,90020],[9,32]],[[21322,90052],[212,-11],[-1,48]],[[21533,90089],[167,0],[0,-59],[164,12]],[[21864,90042],[2,-244],[-166,7],[-77,-72],[-252,15]],[[21369,89796],[-217,50]],[[21152,89846],[0,69]],[[21152,89915],[39,7],[11,151],[111,-53]],[[20706,90324],[200,-4],[34,-59],[-211,-1],[-17,23],[-27,-21],[21,62]],[[21120,90332],[37,203],[212,-65],[147,15],[18,-444],[-173,-2],[-39,102],[-172,65],[41,72],[-71,54]],[[20351,89989],[187,-39],[-7,-33],[-92,-1],[-43,-185],[-92,46],[88,142],[-41,70]],[[21369,89796],[2,-48]],[[21371,89748],[-83,20],[-76,-88],[-185,-11],[-88,87],[14,63],[-85,-49],[78,-55],[-38,-38],[-284,90],[21,37],[97,18],[-34,68]],[[20708,89890],[50,0]],[[20758,89890],[200,0],[411,-94]],[[20621,90087],[-114,0]],[[20507,90087],[30,74],[83,24],[1,-98]],[[21628,89481],[-46,-67],[-133,124],[179,96],[-114,-3],[-118,-76],[-228,15],[-103,-98],[-135,15],[-151,67],[239,52],[52,46],[228,60],[-10,56],[337,-19],[167,-86],[25,-54],[-83,-127]],[[20738,90205],[112,15],[18,-84],[-69,0],[-61,69]],[[20772,89939],[-66,51],[-84,8]],[[20622,89998],[-1,118],[172,20]],[[20793,90136],[64,-49],[345,1]],[[21202,90088],[1,-145],[-431,-4]],[[20408,89756],[147,-3],[20,-116],[-120,-17],[-47,136]],[[20505,90014],[-54,-45]],[[20451,89969],[-140,59],[-95,-20],[-36,49],[75,17],[250,-60]],[[21236,90166],[77,-19],[53,-106],[-171,55]],[[21195,90096],[41,70]],[[22193,89034],[165,-31],[104,-77],[60,3],[88,-60],[265,-79],[1,-99],[159,0]],[[23035,88691],[1331,0],[1,291],[165,0],[0,97],[-83,0],[0,194],[-248,0]],[[24201,89273],[-1,236]],[[24200,89509],[261,105],[132,7],[1,-218],[76,-33],[-21,-21],[44,9],[-84,-23],[20,-61],[290,-182],[83,72],[29,172],[86,58],[166,-35],[113,-99],[-92,-31],[43,-115],[114,-45],[141,122],[205,-81]],[[25807,89110],[303,32],[324,-15],[-46,-39],[118,-47]],[[26534,88947],[-91,-80],[77,-39],[-119,-31],[16,-100]],[[25359,88141],[-109,-66],[28,-49]],[[20990,88460],[119,-47],[-42,-64],[-11,-116],[39,44],[-5,87],[110,42],[-198,97],[-4,51],[40,-2],[-120,64],[-6,122],[381,0],[182,-32],[137,-177],[105,5],[9,32],[126,16],[-107,-7],[-12,75],[-90,74],[58,76],[-87,-64],[-249,177],[-173,46],[-51,1],[-3,-41],[-200,28],[-76,148],[173,-54],[90,28],[-80,-15],[-59,52],[-105,19],[-63,131],[-130,12],[-32,130],[40,25],[77,-19],[20,-62],[89,-40],[267,52],[-89,-109],[127,88],[11,-161],[96,65],[-59,3],[-10,86],[135,55],[88,-73],[-35,-109],[46,9],[37,-35],[-6,56],[142,-63],[-90,-82],[92,33],[24,62],[70,-41],[-21,-61],[30,15],[-7,124],[123,-4],[256,-96],[84,-82]],[[20719,89140],[76,-12],[9,-35],[-119,-63],[-6,34],[40,76]],[[21681,89200],[31,0],[-11,-9],[-20,9]],[[20856,89064],[3,5],[3,-3],[-6,-2]],[[21691,88543],[-82,91],[33,30],[63,-68],[-14,-53]],[[21595,88677],[5,11],[25,-12],[-30,1]],[[22069,89461],[8,20],[142,18],[-12,-71],[-146,13],[8,20]],[[21872,89479],[17,78],[127,31],[40,-29],[-104,-41],[-9,-50]],[[21653,89353],[-52,5],[27,123]],[[21628,89481],[106,1]],[[21734,89482],[66,74],[2,97],[-183,75],[81,77],[356,-204],[-169,-32],[-18,-144],[-185,-15]],[[21943,89482],[74,58],[73,-8],[-21,-71]],[[21872,89479],[71,-11]],[[21943,89468],[63,-100],[-61,-36],[-58,44],[-15,103]],[[22113,89654],[182,-92],[-73,-63],[-145,-18],[13,51],[-74,56],[40,13],[-88,53],[145,0]],[[22126,89186],[-48,-57]],[[22078,89129],[-494,151],[7,91],[62,-18]],[[21653,89353],[31,57]],[[21684,89410],[114,15],[71,0],[138,-127],[65,19],[107,57],[116,188],[72,-52],[12,-248],[-253,-76]],[[21592,89257],[-12,-9],[-9,5],[21,4]],[[21602,89268],[9,3],[1,-2],[-10,-1]],[[22061,89441],[150,-14],[-60,-76],[-144,-53],[-62,34],[116,109]],[[21943,89482],[126,-21]],[[22069,89461],[-63,-93],[-53,35],[-10,79]],[[54304,15334],[-60,-155],[-60,44],[-151,25],[-84,83],[2,163],[434,0],[29,-30]],[[54304,15334],[110,0],[0,130]],[[54414,15464],[250,0]],[[54896,15160],[-158,16],[-269,-14]],[[54332,15144],[-44,29],[16,161]],[[54058,15229],[126,-6],[-133,-179],[-585,22],[-2,193],[348,-14],[145,-73],[14,33],[85,-9]],[[54664,15464],[-713,30],[-31,-123],[113,-123],[68,-19],[-43,0]],[[54058,15229],[-2,-33]],[[54056,15196],[-103,3],[-17,-35],[-142,83],[-330,12],[-8,432]],[[54332,15144],[86,-15],[51,33]],[[54469,15162],[427,-2]],[[54896,15160],[1,-180],[-669,51],[-162,33],[115,148],[63,-33],[57,22],[31,-57]],[[46429,12347],[0,-1448]],[[99996,14091],[3,-14079],[-99998,-12],[0,12332]],[[54687,14862],[-16,-57],[6,-111]],[[53135,15068],[931,-4],[831,-84],[-1,-118]],[[59693,28484],[-924,7]],[[99983,26964],[13,-12873]],[[99996,14091],[-3520,12],[-9310,-111],[-2594,0],[-6815,-2067],[41,-3891],[-4193,1],[0,1896],[-9013,-1],[0,-1058],[-484,0],[-331,-71],[-2415,-255],[-2631,326],[-1,-2379],[-5228,0],[-5,1431],[51,51],[-46,21],[2,185],[-719,0],[0,1745],[-4214,8],[3,965],[-2145,0]],[[46429,10899],[-1,3935]],[[42461,19745],[11268,0]],[[54677,14694],[10,168]],[[54687,14862],[209,0]],[[54896,14862],[0,298]],[[54896,15160],[0,304],[-232,0]],[[54664,15464],[0,227],[-1208,0]],[[53456,15691],[10,-623],[-331,0]],[[53135,15068],[-622,-152],[0,-190],[170,16],[2,-89],[175,28],[-10,-202],[991,0],[294,142],[126,-262],[636,0],[0,335],[-220,0]],[[18391,50857],[15185,-5]],[[36724,19748],[5737,-3]],[[42461,19745],[0,-3853],[94,-3],[48,-97],[-141,-201],[-1,-757],[3967,0]],[[46428,14834],[1,-2487]],[[46429,12347],[-3108,0],[0,-929],[-1760,0],[-1,929],[-41559,-15]],[[1,12332],[-1,36144]],[[53729,19745],[-17005,3]],[[36724,19748],[0,1089],[430,-3],[0,1576],[-9662,2],[0,-395],[-5184,0],[0,288],[-4111,0],[17,130],[942,1355],[9901,1],[-1,3247],[-4566,0],[0,950],[-1730,0],[0,-578],[-6287,0],[1,5720],[20989,0],[-1,917],[-3872,1923],[1787,1173]],[[53239,28501],[6454,-17]],[[59693,28484],[-15,-970],[611,2],[1105,-657],[170,-20],[764,-642],[-97,-501],[-238,-33],[-388,-176],[48,-232],[-96,-234],[228,-44],[-216,-399],[-109,-52],[-697,0],[-28,-1809],[-3818,-2],[36,-3502],[-2710,-3],[-515,346],[1,189]],[[37801,62386],[3726,1]],[[60477,61959],[4504,1]],[[99957,55574],[26,-28610]],[[99983,26964],[-3513,0],[-1,-459],[-13238,2],[-2,3005],[-7424,0],[13,866],[-1035,0],[-690,-386],[-3699,0],[-1,584],[-4334,0],[10,-1403],[-7296,9],[-4,-691]],[[58769,28491],[-5530,10]],[[53239,28501],[189,64],[262,175],[137,26],[91,142],[359,252],[68,195],[-1325,0],[-1,1060],[-1234,5],[-36,4537],[-3676,0],[0,-3127],[-1838,1],[1,778],[-4506,0],[7,1487],[-6360,3047]],[[35377,37143],[-1764,898],[-37,12811]],[[33576,50852],[-4176,-2]],[[57934,42082],[-167,164],[-81,0]],[[57254,42243],[15,-238],[263,-240],[29,51]],[[57686,42246],[64,1],[90,-35],[94,-130]],[[57934,42082],[163,-58],[-1,-129],[-535,-79]],[[57561,41816],[-1,-51],[-46,0],[-22,67],[-191,132],[-46,85],[-1,194]],[[57254,42243],[432,-23],[0,26]],[[20990,88460],[-1,-1400],[1662,-6],[0,295],[332,0],[0,-48],[730,-11],[7,-96],[80,1],[1,-45],[178,0],[0,-106],[497,4],[61,79],[-2,180],[120,16],[-64,111],[85,1],[229,158],[196,-6],[13,42],[-63,39],[188,-8],[38,72],[82,30],[10,122],[-153,66],[62,76]],[[25278,88026],[-23,53],[104,62]],[[25359,88141],[119,-3],[47,45],[388,97],[75,145],[100,63],[221,-26],[6,29],[-119,22],[-20,37],[241,147]],[[26417,88697],[-30,87],[133,44],[-81,54],[95,65]],[[26534,88947],[-90,21],[62,73]],[[26506,89041],[-122,65],[200,41],[41,58],[-80,98]],[[26545,89303],[64,88]],[[26609,89391],[-165,-30],[-45,51],[44,77],[-192,16],[68,94],[-118,11],[-122,-52],[-39,45],[115,52],[-4,31],[-169,-3],[34,96],[-120,-48]],[[25896,89731],[-83,20],[45,60]],[[25858,89811],[139,-9],[9,55],[-96,32],[-125,-50],[-45,96]],[[25740,89935],[-171,9],[13,58],[154,29],[-93,59],[-1,45],[180,12]],[[25822,90147],[39,57],[-79,42]],[[25782,90246],[-123,-30],[-169,73]],[[25490,90289],[-136,119],[-7,86]],[[25347,90494],[-110,62],[255,225]],[[25492,90781],[-152,113],[-60,250],[-208,78],[-100,105],[-184,8],[-24,37],[43,91],[235,213],[-34,178],[252,238],[-80,153],[252,203],[90,25],[52,-3],[17,-66],[-54,-39],[12,-75],[238,-130],[-79,-152],[89,-65],[-100,-66],[111,-98],[-98,-134],[225,-291],[518,-298],[510,-126],[506,-55],[842,37],[1251,-49],[1043,77],[840,190],[546,203],[139,-4],[139,-60],[-7,-57],[135,-77],[19,-75],[244,-113],[908,-158],[540,-45],[46,96],[417,121],[403,165],[257,216],[287,29],[308,95],[154,164],[75,-37],[98,29],[88,-16],[29,-196],[157,-141],[91,1],[59,42],[467,107],[214,19],[402,-249],[308,92],[5,180],[272,324],[453,59],[336,89],[464,171],[24,85],[66,-12],[46,-69],[350,-144],[680,-66],[359,-117],[204,-14],[548,51]],[[44437,89552],[-4,-6101]],[[37392,80772],[36,308]],[[20780,82563],[-279,-26],[-147,101]],[[13767,84261],[-97,81],[-60,136],[-691,479],[-102,21],[-259,-19],[-149,69],[20,217],[168,172],[-153,117],[-1,69],[111,336],[122,186],[-35,101],[-86,21],[-23,56],[123,155],[21,112],[199,28],[186,126],[114,-27],[86,25],[-23,-98],[151,-113],[179,-46],[286,6],[359,105],[260,106],[130,93],[268,87],[-61,55],[280,489],[-62,79],[38,401],[-110,130],[71,303],[234,-60],[-14,-23],[71,29],[280,-158],[16,107],[-101,34],[21,58],[-53,61],[214,44],[-36,-52],[51,-7],[115,50],[-47,76],[203,78],[68,-78],[180,42],[334,-151],[13,-35],[186,19],[53,-23],[52,-156],[-190,-176],[55,19],[134,-109],[-31,-60],[42,-63],[16,112],[-34,50],[131,4],[-56,-60],[37,-40],[37,-14],[31,17],[-47,-8],[-48,43],[54,28],[12,35],[-48,18],[-126,-3],[-45,82],[102,45],[170,-66],[-2,-37],[239,113],[15,-110],[27,9],[-8,50],[77,22],[178,-86],[-28,-97],[-125,-39],[5,-26],[106,9],[57,47],[73,-26],[-67,49],[104,42],[17,50],[129,-13],[-87,-61],[58,-24],[-28,33],[87,36],[213,-36],[16,-116],[-64,-55],[37,-37],[-54,-57],[8,-49],[120,6],[-94,2],[-22,28],[110,68],[52,104],[47,0],[-65,20],[-15,90],[-223,108],[57,37],[96,-66],[340,4],[94,-62],[200,-26],[40,-32],[-122,-83],[105,-41],[53,32],[-104,14],[155,114],[107,31],[-9,40],[336,38],[-350,-1],[-177,-58],[-123,41],[262,119],[-8,34],[-195,-108],[-115,-7],[-104,48],[103,60],[-78,-18],[-99,47],[-29,-34],[-80,45],[-165,-5],[48,17],[-236,99],[10,-51],[-224,38],[-126,-91],[-140,138],[1,75],[-308,119],[47,121],[108,-69],[258,23],[41,-248],[108,43],[-21,8],[-61,-11],[-7,166],[183,99],[48,66],[110,-74],[127,33],[40,-58],[100,-38],[-53,-51],[34,-75],[12,45],[-35,31],[49,34],[6,25],[-93,24],[-47,74],[-145,-26],[-71,76],[-161,15],[-93,47],[4,36],[160,55],[-139,-34],[-27,20],[-50,-68],[-61,8],[33,-23],[-93,-25],[-76,101],[28,63],[-38,35],[188,357],[66,77],[189,-2],[-18,90],[-145,53],[-112,115],[83,65],[49,-17],[337,50],[-122,106],[-278,44],[-101,123],[372,89],[68,78],[71,-50],[335,-33],[329,-147],[242,14],[67,-62],[281,-38],[143,13],[183,-82],[-99,-283],[-337,-292],[108,11],[276,279],[192,51],[-83,-126],[78,-104],[-13,-72],[-87,-44],[55,-123],[-283,-228],[-218,-11],[1,-60],[56,-66],[4,17],[-45,44],[-8,56],[211,-7],[138,97],[190,68],[35,-96],[-83,-156],[-76,-30],[56,1],[26,-96],[26,109],[47,-25],[-16,-107],[133,-16],[4,17],[-131,17],[54,84],[54,10],[-72,88],[120,72],[-82,183],[199,81],[74,-35],[-73,-130],[75,-21],[26,-101],[110,18],[77,-55],[-1,26],[-28,22],[-98,32],[-39,115],[253,27],[122,-165],[193,-117],[10,-32],[-119,-91],[-124,31],[28,-34],[114,-33],[115,59],[81,-113],[-87,-82],[11,-117],[12,4],[9,20],[-3,103],[94,55],[105,-112]],[[11313,85392],[69,-57],[-43,-138],[76,-68],[77,-26],[256,19],[193,-128],[-77,-74],[-258,28],[26,15],[-41,-10],[-27,-38],[-215,20],[-36,457]],[[12118,84852],[122,-8],[71,-196],[-119,15],[-140,75],[66,114]],[[37071,92135],[38,80],[103,-24],[131,14],[185,67],[266,-22],[129,-79],[99,-215],[-119,-117],[-237,-10],[-261,105],[4,37],[-338,164]],[[26136,92111],[54,-79],[-103,-22],[-41,51],[90,50]],[[37292,91718],[44,-115],[-17,-70],[-74,-30],[-69,31],[-15,80],[66,96],[65,8]],[[15083,88372],[141,-55],[-32,-18],[-109,73]],[[16918,88940],[-73,-47],[54,-47],[-123,-5],[-79,-129],[89,-45],[76,-223],[133,-56],[4,-57],[134,-90],[-36,-74],[58,-95],[-50,-21],[-171,65],[-3,254],[-276,108],[-140,145],[92,180],[-113,107],[260,40],[102,110],[62,-120]],[[15207,88496],[-45,113],[144,60],[87,-5],[120,-61],[-84,-98],[-222,-9]],[[15619,88964],[163,57],[97,-32],[55,-76],[-195,-81],[-120,132]],[[15487,88795],[-26,70],[100,41],[97,-21],[75,-72],[-159,-47],[-87,29]],[[15646,88717],[-49,-34],[-120,10],[-83,31],[-8,39],[74,11],[186,-57]],[[16185,88631],[68,-93],[-61,-9],[-7,102]],[[15916,89282],[-32,15],[92,57],[24,-33],[-84,-39]],[[18055,88193],[-32,24],[39,34],[34,-36],[-41,-22]],[[15756,89194],[32,30],[8,-29],[-40,-1]],[[17772,88111],[2,10],[50,-12],[-52,2]],[[20765,88835],[22,10],[-2,-8],[-20,-2]],[[13767,84261],[5176,9],[45,-95],[106,-23],[75,23],[52,-37],[57,-157],[124,-71],[-3,-74],[69,-23],[6,-255],[101,-40],[-83,-75],[437,-308],[108,-217],[106,-53],[0,-180],[-58,-40],[269,-7]],[[20354,82638],[155,-101],[271,26]],[[20780,82563],[27,55],[155,55],[185,129],[132,-9],[-82,207],[145,314],[133,90],[189,-5],[44,-48],[294,-113],[102,11],[46,-55],[220,4],[0,-308],[2562,0],[-9,930],[278,-162],[614,-252],[201,-168],[120,-20],[0,1268],[5581,0],[0,479],[270,0],[92,-171],[134,-78],[93,-116],[20,-288],[172,-35],[26,-44],[100,-26],[22,-226],[211,-160],[-19,-91],[144,-229],[-48,-95],[195,-117],[145,-22],[265,-205],[61,-92],[19,-194],[168,-42],[99,-105],[207,-53],[502,-270],[112,-13],[50,-97],[94,-58],[257,51],[183,-58],[148,65],[206,-23],[190,-43],[51,-67],[185,-25],[396,-164],[88,41],[185,-31],[30,-157],[195,-68],[-2,-305],[248,-54],[90,-99],[-6,-59],[133,-62]],[[37428,81080],[3,-230],[-39,-78]],[[33548,78366],[169,-84],[40,-95]],[[33081,78242],[-146,-14],[-74,-60]],[[31957,77604],[-75,-53],[-244,-114],[-413,-70]],[[30575,77107],[-341,7],[-90,-67]],[[29715,76855],[-161,-24],[-2,-63],[191,-257]],[[30314,75104],[-12054,-2]],[[13026,74071],[157,23],[-7,96],[-152,67],[43,-60],[-122,-83],[-97,-2],[-48,92],[114,42],[-74,34],[-215,1],[-128,-59],[-235,15],[-134,78]],[[10565,74326],[-65,27],[-260,-33],[-356,79],[-193,-24],[-182,-79],[-209,-122],[-16,-60],[-270,-39],[12,-24],[-132,26],[-181,-54],[-173,-6],[-138,29],[-79,92],[52,44],[252,51],[105,102],[103,31],[-45,5],[26,36],[114,-2],[67,60],[-105,-43],[-27,63],[-46,6],[-200,-99],[-15,-78],[-181,7],[-267,-79],[-689,202],[-113,115],[6,76],[50,13],[-29,44],[-219,72],[-285,236],[-240,35],[-95,87],[-94,154],[32,144],[591,37],[618,-14],[295,198],[126,33],[121,-8],[168,62],[0,33],[259,164],[-37,21],[89,9]],[[11377,77467],[247,147],[53,91]],[[9049,82054],[223,357],[-79,285],[-123,75],[7,33],[154,-64],[468,82],[38,-22],[29,20],[-115,68],[5,62],[100,130],[212,131],[40,-401],[98,-89],[208,-92],[368,-52],[370,3],[61,33],[87,-18],[122,30],[257,88],[181,107],[60,-28],[87,88],[382,226],[122,-64],[88,-2],[359,156],[370,321],[539,744]],[[7697,74160],[-244,113],[2,38],[334,-37],[341,-99],[-14,-32],[-122,-29],[-297,46]],[[9049,82054],[767,1],[207,-329],[-203,-360],[-574,-192],[1283,-1286],[-1003,-793],[2151,-1390]],[[11677,77705],[-36,-76],[-264,-162]],[[11377,77467],[-377,-126],[-221,-30],[-334,-149],[-837,418],[-342,-340],[-293,64],[-269,-229],[6,-1120]],[[8710,75955],[-925,-186],[-352,-112],[-1140,119],[-109,77],[-279,21],[-62,-30],[-133,147],[-290,177],[144,83],[78,106],[96,2],[-34,17],[103,42],[-158,-42],[-73,64],[-131,14],[183,-77],[-115,-125],[-154,-68],[-58,37],[-63,238],[109,65],[-129,-57],[-67,44],[8,65],[-23,-62],[-96,31],[162,-94],[65,-201],[-236,-93],[-64,36],[41,106],[-73,50],[-112,-18],[-131,75],[-50,57],[28,59],[-223,143],[19,45],[-50,36],[1,-14],[43,-24],[-43,-31],[-207,47],[-251,-28],[44,273],[147,184],[-77,110],[166,108],[129,33],[189,189],[99,-19],[-55,57],[43,36],[-75,-16],[-26,289],[242,63],[246,233],[40,-30],[78,14],[362,436],[119,-36],[55,41],[-153,70],[36,74],[38,-20],[33,31],[-61,11],[-32,153],[-147,3],[2,133],[-84,69],[138,4],[163,-139],[124,-8],[-15,-38],[136,115],[-33,37],[132,-52],[-21,-140],[79,-65],[-111,-101],[-51,-156],[160,-97],[163,16],[-21,201],[137,185],[60,16],[108,-75],[73,37],[67,-26],[15,51],[146,92],[26,106],[-234,137],[91,149],[19,-89],[97,-78],[352,-77],[738,217],[155,7],[275,254],[71,152],[-72,34],[15,184],[-116,134],[-242,37],[68,279],[209,162],[248,103],[129,101],[120,58],[112,-14],[3,77],[-64,7],[-47,57],[71,241],[-83,77],[20,181],[49,172],[273,344]],[[18673,96551],[47,-107],[86,-25],[98,39],[-79,-150],[183,-165],[54,-5],[19,114],[53,16],[168,-48],[161,-6],[107,-132],[378,-87],[165,-108],[37,45],[-73,79],[-157,95],[-282,54],[-7,92],[59,34],[-161,37],[-32,95],[-165,31],[-75,103],[-135,47],[-223,-32],[-28,19],[-22,-32],[-11,122],[102,154],[653,66],[96,71],[397,-1],[457,64],[559,302],[255,-23],[46,-36],[692,-145],[-38,-23],[61,-76],[464,-81],[164,91],[52,76],[-125,100],[-3,55],[259,43],[102,57],[211,-4],[-38,34],[266,132],[5,134],[140,31],[160,-14],[94,42],[195,-107],[-24,-79],[93,-55],[-42,-180],[118,-38],[-5,-42],[101,-62],[135,147],[93,11],[15,-217],[132,192],[-23,42],[-138,41],[-141,-25],[-37,23],[4,40],[133,80],[-60,99],[14,105],[96,76],[-18,64],[143,50],[190,-3],[123,44],[52,173],[91,16],[126,-52],[55,56],[56,-65],[80,36],[18,-47],[103,-18],[-19,-51],[204,-115],[-4,-46],[-173,-99],[-46,-109],[82,-43],[224,-7],[57,123],[163,48],[105,-6],[115,-72],[133,-23],[-46,-131],[129,-99],[202,52],[30,64],[-82,97],[54,51],[106,20],[297,-72],[64,-137],[-148,-52],[3,-54],[48,-52],[118,-9],[199,-100],[7,-42],[-100,-57],[23,-67],[168,-116],[-81,-40],[15,-63],[200,-83],[137,105],[87,-17],[65,-68],[87,25],[62,-16],[168,-142],[-55,-72],[46,-138],[71,-37],[-180,-157],[-138,19],[-37,58],[-148,-25],[-164,-133],[-132,-45],[-115,-122],[-67,-243],[14,-65],[100,-62],[-107,-71],[46,-40],[120,-2],[22,-115],[-48,-34],[-228,-17],[-178,43],[-61,-59],[-241,162],[-198,5],[-76,36],[0,-55],[-95,-54],[-144,-242],[-186,-148],[-105,-156],[-480,-272],[-90,-109],[-175,50],[-101,-7],[-626,-254],[-196,-131],[-242,-77],[-157,-14],[-440,-164],[-274,-37],[-369,-304],[-340,-32],[-472,-315],[-258,-42],[-161,59],[-23,71],[-163,133],[-657,304],[-673,65],[-486,136],[-366,144],[-423,41],[-136,136],[87,99],[-120,-11],[-301,86],[-241,167],[-285,49],[-47,79],[-100,44],[26,58],[-165,-76],[-41,105],[-121,74],[-170,13],[-110,-54],[-438,170],[-177,227],[20,175],[108,45],[-28,40],[87,99],[-28,60],[-37,56],[-76,-8],[-57,65],[-146,20],[-114,135],[-221,89],[21,184],[-49,82],[-125,49],[89,190],[-104,70],[14,35],[-80,21],[40,74],[-78,100],[25,116],[-221,-9],[-16,102],[-54,29],[118,70],[-12,74],[57,45],[137,23],[-49,24],[37,35],[-226,203],[-213,64],[-74,72],[103,560],[319,25],[478,-262],[480,-364],[313,-132],[300,-20],[125,113],[243,-107],[219,-48],[84,-70],[-38,-41],[42,-99],[-196,-100],[10,-41],[-224,14],[-11,-67],[-68,-11],[-56,-64],[30,-154],[131,-86],[137,-28],[183,62],[31,43],[207,-7],[202,83],[48,37],[-4,92],[170,131],[72,-37],[-62,-134],[48,-70],[-73,-31],[77,-102],[-59,-53],[262,-179]],[[12985,95705],[-7,-4],[-3,5],[10,-1]],[[18345,93984],[11,28],[69,-48],[29,13],[-35,-23],[-124,-16],[-7,82],[57,-36]],[[17901,94509],[30,0],[-5,-7],[-25,7]],[[18214,94393],[14,-50],[-244,-327],[-145,-115],[-258,0],[-141,63],[-17,42],[-52,-35],[51,-29],[-246,10],[-388,-73],[-130,5],[-478,103],[-137,-19],[-226,76],[-350,29],[-384,134],[-492,67],[-2025,-360],[-140,-14],[-218,45],[-161,-31],[-212,45],[-177,-38],[-285,172],[-38,144],[144,136],[116,3],[145,-72],[185,9],[-128,94],[110,184],[-33,241],[82,117],[158,-14],[393,-215],[357,-16],[492,374],[136,-98],[-115,-207],[205,-48],[-136,-105],[170,-54],[94,-92],[3,99],[-176,52],[81,61],[2,57],[-206,48],[143,150],[460,-247],[72,-8],[82,60],[104,3],[113,-156],[89,-33],[-104,215],[-195,26],[-173,-43],[-160,127],[10,30],[127,-12],[61,93],[-97,-83],[-57,50],[-148,33],[-80,128],[-172,25],[-48,-28],[-190,-7],[-22,24],[114,358],[-69,99],[-92,-9],[-130,95],[109,124],[83,15],[34,134],[252,34],[81,57],[64,-147],[261,-49],[105,-192],[31,95],[58,24],[-122,37],[-32,49],[35,30],[-129,-3],[-156,46],[26,104],[-75,50],[-79,-6],[-109,-80],[-117,-8],[-197,175],[-144,9],[-182,-51],[-61,6],[-33,56],[22,47],[219,81],[111,218],[64,38],[113,-9],[339,88],[202,300],[-34,-181],[87,-49],[82,18],[-85,6],[-28,39],[74,102],[-60,149],[49,54],[564,31],[397,152],[169,-139],[79,-265],[120,-113],[131,-51],[37,-86],[80,9],[72,-58],[35,-159],[-64,-30],[-60,-135],[-39,14],[-123,-82],[38,-73],[-58,-88],[270,-216],[119,-25],[11,-33],[187,2],[231,-141],[39,19],[126,-60],[-45,-294],[51,-57],[-14,-121],[56,-129],[256,-42],[295,-124],[173,-19],[215,24],[114,-100],[141,-32],[94,14],[82,-143],[131,-35],[74,-9],[36,2],[284,-106]],[[18404,97252],[47,45],[47,-80],[-43,-7],[-51,42]],[[15626,96556],[20,29],[16,-36],[-36,7]],[[17445,96988],[0,-21],[-23,5],[23,16]],[[44435,85282],[2,4270]],[[44437,89552],[-295,213],[3,133],[-79,38],[20,97],[87,45],[-44,100],[48,15],[-10,116],[62,91],[-105,78],[4,53],[-186,94],[51,97],[-60,20],[-27,64],[-9,-63],[-68,-3],[-52,164],[-129,13],[-81,62],[-116,-131],[-90,4],[-67,130],[-90,7],[12,26],[-164,-95],[-29,59],[42,73],[-168,32],[-45,119],[-230,38],[-25,87],[-58,28],[-306,-34],[-5,103],[-66,37],[-92,-9],[-36,-122],[-36,3],[-107,171],[175,49],[16,67],[-307,197]],[[41775,91818],[-670,-50],[-441,130],[-607,49],[-310,107],[575,125],[-70,93],[34,122],[-77,261],[217,463],[36,295],[153,72],[-108,106],[41,99],[-145,250],[-193,85],[-249,16],[-178,122],[179,128],[258,62],[41,79],[238,125],[-118,65],[-99,-38],[-361,-40],[-575,73],[-245,208],[-206,39],[6,231],[52,67],[563,1],[204,-126],[120,-16],[129,25],[8,86],[-531,198],[-161,198],[150,48],[-24,22],[86,103],[-181,5],[-136,50],[-25,61],[74,108],[-195,11],[-155,76],[-37,66],[32,60],[338,116],[-23,21],[-176,-10],[-299,-101],[-303,187],[-311,35],[-303,-19],[-519,90],[-568,-161],[-734,64],[-297,-92],[-180,-139],[-248,5],[-113,-68],[-141,-21],[6,-55],[-125,-67],[-73,-2],[-37,43],[-149,-10],[88,-64],[-86,-90],[-107,60],[-254,0],[-192,50],[-105,174],[-165,41],[-78,56],[-40,153],[53,22],[145,-21],[114,83],[-52,43],[61,56],[-192,73],[-346,-66],[-204,13],[-78,44],[93,120],[-96,15],[-263,-60],[-246,95],[6,31],[213,72],[215,-21],[62,46],[-187,55],[-29,53],[103,18],[17,45],[-26,42],[-87,17],[-108,-1],[-64,-64],[-144,8],[-97,-45],[23,-51],[-139,46],[-18,31],[48,8],[63,107],[218,77],[-32,34],[-113,22],[-26,-53],[-178,-3],[-157,81],[-103,4],[-74,59],[-277,66],[-227,-138],[-698,-74],[-144,59],[15,51],[-64,56],[155,-12],[-34,-44],[80,-18],[49,41],[-53,28],[36,63],[208,-45],[64,25],[7,105],[-141,54],[77,22],[120,10],[166,-89],[206,-38],[89,25],[56,52],[-109,74],[17,59],[-128,36],[-87,98],[-143,76],[-15,59],[81,40],[104,-66],[0,-50],[86,-20],[232,119],[-21,-88],[112,20],[81,-101],[54,-1],[-10,113],[77,64],[-103,44],[-16,51],[78,79],[-19,-23],[236,-69],[14,-69],[96,-7],[-90,-58],[28,-32],[101,10],[52,-98],[83,-9],[42,-55],[-61,-49],[26,-51],[187,43],[2,50],[175,-54],[40,49],[-41,103],[128,-41],[160,112],[-76,90],[-107,37],[8,62],[-109,78],[95,52],[139,-64],[140,48],[-79,-18],[-15,160],[-107,68],[-71,2],[-1,38],[28,47],[90,-14],[140,40],[196,-35],[200,-323],[92,-95],[117,7],[-23,-48],[51,-6],[18,28],[49,-41],[30,19],[-52,52],[160,58],[-12,52],[82,-30],[-98,-80],[64,-40],[118,18],[-83,-103],[79,-56],[-43,-38],[79,-52],[147,3],[-14,32],[120,62],[14,59],[45,-18],[-32,-99],[37,-51],[-97,-147],[-106,-40],[40,-77],[160,37],[31,-35],[-33,-93],[-93,-13],[-78,-92],[102,-79],[-84,-93],[99,9],[155,-147],[26,250],[130,107],[40,-123],[175,-50],[-78,-70],[-42,-151],[27,-32],[70,-1],[4,-95],[-93,-13],[-17,-34],[142,5],[-5,-53],[-51,-16],[195,-105],[-38,-38],[36,-44],[60,-8],[67,37],[-49,127],[201,-83],[32,-50],[67,2],[54,19],[-4,89],[-113,17],[30,92],[-140,24],[-47,120],[112,77],[314,-130],[107,44],[-9,84],[62,73],[-106,77],[0,43],[-330,134],[-103,-21],[-174,-123],[32,64],[199,114],[22,71],[-48,31],[76,87],[-92,138],[-104,38],[108,2],[108,111],[-60,111],[-98,21],[-168,120],[-102,10],[10,156],[-232,43],[31,136],[-100,79],[300,-53],[278,-5],[72,-81],[-34,-28],[46,-107],[179,-132],[80,-11],[93,38],[15,-100],[179,-20],[-36,-148],[106,-13],[21,-80],[57,0],[-21,-43],[73,-126],[222,-101],[3,50],[64,26],[-111,116],[58,34],[-14,54],[-186,119],[105,101],[-76,55],[-27,99],[251,71],[224,-59],[131,43],[-3,78],[121,23],[90,74],[1,106],[-71,25],[14,34],[114,-24],[-25,-98],[175,-101],[86,-291],[195,-94],[-29,-264],[-70,-107],[46,-6],[22,-78],[-56,-30],[-19,-90],[42,-11],[92,61],[4,-64],[135,-20],[65,68],[-3,137],[59,33],[64,-43],[95,59],[-12,81],[-86,70],[61,79],[152,102],[194,-41],[297,-275],[324,-85],[-14,-84],[-86,17],[-120,-117],[106,-4],[151,54],[-26,-37],[55,-39],[-77,-51],[134,-39],[-149,-7],[-30,-77],[119,-3],[86,-98],[139,38],[165,-20],[106,-152],[153,-52],[164,-145],[162,-69],[246,-38],[150,-192],[-21,-144],[62,-128],[178,-159],[142,-70],[175,-17],[106,30],[271,-65],[178,39],[150,148],[186,53],[21,54],[136,64],[68,158],[259,29],[198,142],[-24,107],[282,77],[106,-143],[168,-23],[104,-80],[142,17],[81,52],[-35,107],[104,122],[-77,65],[-102,23],[-32,85],[-109,71],[-171,51],[82,67],[200,-22],[85,-48],[224,56],[78,-41],[97,-174],[130,-28],[42,-110],[216,-213],[314,-51],[112,-53],[431,-472],[329,-105],[-74,-161],[22,-72],[255,-245],[130,-279],[276,-193],[14,-71],[235,-215],[426,-124],[646,-48],[381,98],[128,100],[498,60],[112,-51],[40,-118],[-99,0],[-53,-57],[-260,19],[-102,-113],[102,-170],[71,-21],[328,38],[54,-80],[137,2],[71,57],[-82,67],[159,25],[211,145],[149,-52],[-65,-45],[53,-71],[-181,3],[2,-73],[116,-77],[315,37],[119,-30],[-8,-75],[103,-79],[235,79],[26,57],[243,-1],[365,140],[59,-63],[-119,-141],[63,-57],[-22,-71],[-92,-74],[55,-134],[-116,-121],[-64,-17],[51,-91],[152,102],[126,244],[139,-7],[90,115],[462,-17],[26,-42],[-96,-103],[62,-43],[78,-26],[136,55],[80,-14],[89,73],[126,0],[155,45],[-81,66],[250,134],[-23,38],[-137,21],[42,28],[254,-51],[535,4],[377,135],[67,50],[-17,96],[183,100],[224,-35],[251,50],[139,-154],[202,-56],[346,-1],[217,72],[111,-139],[141,-38],[-76,-36],[-12,36],[-97,16],[-103,-39],[-105,-74],[-38,-137],[-130,-44],[-257,49],[-226,-53],[-142,-131],[-125,-52],[177,-237],[43,-22],[179,14],[202,-152],[-13,-48],[51,-27],[121,29],[41,-27],[-74,-4],[65,-10],[108,47],[99,1],[31,-92],[76,30],[105,-16],[532,139],[137,69],[145,156],[372,57],[282,-97],[-8,-144],[168,-41],[-34,-17],[57,-28],[-132,-85],[77,-126],[109,64],[114,-11],[70,27],[85,108],[138,11],[-16,65],[119,-23],[44,-134],[361,-232],[87,-6],[-64,-104],[-187,24],[-23,-108],[57,-59],[189,-61],[103,56],[-18,-141],[148,-93],[-355,-474],[111,-153],[112,-75],[37,5],[-73,67],[8,52],[102,82],[51,194],[387,252],[157,-15],[125,32],[1,127],[-88,204],[158,-28],[290,36],[239,-177],[605,-243],[33,22],[71,-34],[267,-27],[53,-48],[212,-40],[523,5],[49,-47],[274,-2],[1210,147],[585,230],[358,356],[216,-29],[128,43],[256,8],[32,63],[149,-15],[150,-76],[-75,-50],[47,-62],[-70,-104]],[[44339,98937],[-128,81],[-10,71],[434,-158],[-135,-133],[-121,-2],[-40,141]],[[42827,98980],[53,102],[205,-19],[-61,-79],[-30,-8],[-68,21],[-99,-17]],[[42497,99529],[-33,44],[-13,-5],[11,-33],[-34,24],[37,42],[64,-40],[39,37],[19,-45],[-80,-166],[-10,142]],[[44759,99988],[172,11],[-68,-24],[-121,-16],[17,29]],[[57911,93472],[-4,16],[17,-3],[-13,-13]],[[43375,98431],[157,19],[-38,-121],[67,-72],[-210,63],[-280,-71],[-53,103],[-161,48],[73,53],[164,-47],[196,45],[85,-20]],[[36537,98705],[21,6],[-16,-24],[-5,18]],[[38412,99223],[23,9],[-5,-38],[-18,29]],[[42497,99248],[-86,-26],[13,61],[98,94],[-25,-129]],[[38316,95252],[30,39],[141,-25],[-48,-51],[-123,37]],[[41451,97418],[-119,43],[-3,34],[147,-2],[-25,-75]],[[42026,97286],[39,1],[-8,-4],[-31,3]],[[32764,96241],[71,6],[109,-76],[-62,-28],[-118,98]],[[57467,92006],[-77,78],[86,74],[109,20],[29,-67],[-147,-105]],[[57936,93063],[96,-4],[-57,-65],[-104,11],[65,58]],[[62967,93301],[3,2],[15,-4],[-18,2]],[[34568,95328],[115,124],[-11,73],[-71,38],[96,75],[87,-2],[213,-290],[-190,-127],[-207,25],[-32,84]],[[36665,95450],[-39,50],[90,146],[228,-120],[-87,-77],[19,-35],[-211,36]],[[37018,95818],[50,152],[45,-60],[-22,-111],[-73,19]],[[35212,95490],[-9,51],[42,15],[36,-56],[-69,-10]],[[35042,95590],[-13,42],[26,29],[-13,-71]],[[35060,95794],[1,6],[12,-5],[-13,-1]],[[48441,95161],[-84,20],[-40,64],[487,132],[176,126],[285,-14],[148,-49],[207,17],[79,-24],[97,-153],[-29,-33],[-361,39],[-78,-61],[-144,-16],[-65,-110],[-77,136],[-173,-64],[-116,7],[-16,-48],[173,-133],[-79,-86],[-59,20],[-225,-70],[-122,107],[73,125],[-57,68]],[[48792,96098],[-2,45],[376,-12],[467,171],[84,-47],[76,-170],[112,-47],[14,-69],[-19,-35],[-422,25],[-188,67],[-130,-40],[-86,-100],[-155,-16],[-197,-118],[-27,24],[178,140],[32,102],[-113,80]],[[41991,96807],[-46,64],[41,38],[270,-104],[-54,-45],[-211,47]],[[47952,94959],[3,54],[73,-10],[-19,-42],[-57,-2]],[[41388,96216],[-20,19],[3,10],[39,-3],[-22,-26]],[[39781,98306],[70,-93],[98,-22],[68,24],[-15,36],[184,-33],[39,23],[56,-8],[70,-90],[-177,3],[-137,-105],[17,-116],[166,-80],[-44,-67],[43,-297],[-105,-5],[-19,-54],[-93,-31],[-131,-373],[-33,126],[-219,58],[-103,101],[-89,137],[-61,277],[-135,45],[-215,215],[-119,46],[-116,198],[-140,102],[-83,11],[-6,27],[84,31],[89,-48],[97,7],[158,90],[38,75],[-79,34],[100,229],[-54,57],[-66,-21],[-96,59],[-96,-14],[-78,100],[-85,30],[-20,103],[-76,32],[4,34],[60,5],[180,-106],[209,-66],[205,31],[70,74],[229,8],[152,97],[1,135],[-57,65],[86,116],[55,36],[192,-5],[90,30],[30,-49],[-52,-10],[-27,-71],[-35,17],[-47,-25],[-39,-140],[70,-113],[15,-190],[121,-126],[56,-287],[119,-58],[-120,-96],[-69,-12],[-71,38],[-114,-151]],[[40565,98025],[25,72],[99,47],[108,18],[120,-30],[-237,-154],[-54,26],[-92,-36],[-59,20],[90,37]],[[35429,98604],[18,13],[9,-10],[-27,-3]],[[82481,80423],[-68,-7],[-18,19],[36,27],[-115,85],[16,76],[148,102],[135,3],[128,-40],[-65,-20],[1,-48],[95,16],[-14,30],[104,35],[64,-99],[212,8],[145,-48],[328,124],[-8,198],[78,43],[131,-27],[-38,-165],[145,-38],[242,71],[-27,54],[38,22],[63,-10],[22,-58],[203,13],[-76,125],[415,-15],[77,49],[-100,30],[19,75],[-178,37],[-82,-19],[115,98],[-75,107],[-243,50],[-55,50],[71,39],[17,101],[-76,25],[-120,-14],[3,21],[225,83],[10,-56],[143,22],[45,40],[50,-8],[12,-61],[196,0],[-206,-111],[78,-84],[75,-15],[96,110],[77,23],[160,-26],[32,64],[123,-56],[34,147],[96,48],[15,88],[68,57],[23,-23],[-51,-24],[47,-30],[157,37],[18,-43],[72,-12],[84,99],[57,-79],[-46,-33],[63,-37],[-40,-17],[23,-70],[-129,-150],[8,-52],[-145,11],[-143,-89],[-99,8],[-49,-64],[44,-74],[62,24],[-13,-128],[84,-73],[233,-5],[75,54],[118,-22],[-30,-49],[-126,-1],[-98,-102],[48,-112],[137,-59],[-32,-65],[-89,-42],[95,-49],[307,72],[264,-96],[170,-7],[80,-51],[305,38],[102,46],[82,125],[6,69],[-88,74],[-262,-64],[-177,-171],[-9,25],[197,214],[273,143],[1,231],[351,-74],[196,17],[185,-67],[213,-281],[-138,-7],[-311,-233],[-284,-334],[-7,-130],[-503,57],[-240,-81],[-223,-230],[-96,-229],[23,-156],[185,-110],[96,40],[191,5],[-5,-124],[-111,-31],[-111,21],[-108,-133],[-30,85],[-88,15],[-78,-25],[-8,-71],[-87,-7],[-38,-62],[51,-123],[-161,52],[40,42],[-43,41],[-183,-19],[36,-56],[-124,-108],[78,-70],[-75,36],[-49,-23],[25,-28],[-99,2],[-32,-101],[66,-122],[130,-6],[-136,-142],[72,-81],[205,-102],[250,28],[126,-65],[235,16],[42,35],[-203,123],[132,36],[-58,133],[127,-51],[133,32],[74,-90],[401,-148],[128,-165],[109,-21],[186,13],[169,54],[238,236],[-97,88],[64,37],[-44,52],[40,13],[178,-45],[-113,-64],[85,-75],[185,49],[214,-52],[-122,-195],[-124,39],[-86,-104],[31,-59],[165,-45],[-65,-41],[75,-20],[3,-90],[80,-12],[-142,-34],[-77,-73],[64,-33],[21,-73],[176,-49],[-193,41],[-132,-41],[53,-65],[136,-5],[-2,-59],[-94,45],[-78,-14],[-33,35],[-158,19],[-59,40],[-165,-77],[69,-93],[-105,57],[-58,-41],[-74,57],[-110,-7],[22,36],[-59,55],[-135,57],[-146,-36],[-33,-76],[-131,72],[-7,43],[-55,-8],[15,-31],[-96,35],[-54,-63],[133,-36],[-111,-7],[-127,36],[63,7],[48,62],[-74,61],[-259,59],[-242,-27],[-75,39],[-193,-5],[-349,-112],[-133,0],[-156,-91],[23,-54],[-187,70],[-172,-58],[-41,67],[-127,13],[-53,121],[-433,14],[-76,31],[-187,-12],[-184,53],[-114,-9],[-183,135],[-349,-23],[-401,131],[-52,94],[-150,50],[-464,-40],[-433,-117],[-355,-173],[-2,218],[966,290],[119,96],[-12,84],[240,125],[-5,65],[-140,129],[40,96],[-169,144],[-5,69],[49,6],[-70,208],[28,127],[-111,131],[141,173],[170,376],[-31,105],[-119,109]],[[88316,77176],[57,17],[-1,-27],[-56,10]],[[88119,77168],[34,52],[103,-38],[-22,-5],[-54,14],[-61,-23]],[[80770,82177],[21,40],[55,-11],[-35,-34],[-41,5]],[[81313,82213],[18,23],[49,-23],[-67,0]],[[80390,82304],[124,-46],[23,-102],[-245,-6],[-65,88],[163,-36],[0,102]],[[86901,77289],[-32,35],[61,-46],[-29,11]],[[88592,77776],[36,42],[102,-40],[-14,-14],[-124,12]],[[78736,80754],[37,15],[-7,-8],[-30,-7]],[[88160,81928],[172,0],[128,62],[33,-24],[-60,-21],[-75,-117],[-22,39],[-42,-25],[-46,26],[-155,-27],[67,87]],[[82220,81954],[18,62],[181,-7],[33,-70],[-45,-9],[-187,24]],[[86566,78857],[37,48],[10,-65],[-47,17]],[[80994,80944],[42,4],[-21,-27],[-21,23]],[[88503,78017],[-57,-29],[-45,35],[102,-6]],[[88433,77568],[59,-55],[-45,5],[-14,50]],[[88479,77887],[62,21],[39,-26],[-101,5]],[[85121,77439],[-29,29],[-2,20],[28,-16],[3,-33]],[[81049,81462],[46,13],[-2,-13],[-44,0]],[[81111,81465],[10,12],[18,-11],[-28,-1]],[[79920,81005],[-85,36],[-179,-10],[-152,-67],[-53,17],[-57,-55],[139,-97],[-16,-121],[148,-16],[-9,-90],[-367,-19],[-189,46],[-143,98],[167,185],[-118,157],[33,215],[107,59],[66,-93],[120,6],[0,-49],[55,-25],[306,-16],[111,81],[-92,64],[83,59],[-80,74],[153,47],[56,130],[-125,21],[351,98],[258,-46],[68,17],[23,-43],[118,-11],[-23,-124],[181,6],[53,-81],[212,-20],[10,-104],[86,-84],[-197,-30],[-197,22],[-156,-102],[59,-49],[210,24],[-17,-116],[103,-89],[-115,-37],[-100,63],[-56,-9],[-56,-311],[-110,-35],[39,-83],[-111,19],[-369,-67],[-79,55],[145,163],[-69,95],[-174,96],[34,146]],[[83401,81352],[112,24],[29,47],[-92,78],[234,-33],[-27,-72],[63,-33],[50,-130],[-83,-84],[113,-132],[-247,-135],[-228,62],[-98,154],[-200,61],[-56,57],[51,138],[266,48],[113,-50]],[[81861,80548],[-148,3],[-47,-27],[-148,11],[-23,33],[257,198],[122,-19],[56,-88],[-69,-111]],[[85165,81720],[-30,58],[46,18],[185,-31],[-58,-124],[-129,-49],[-65,33],[102,107],[-51,-12]],[[84299,81797],[181,-21],[-125,-70],[-170,-1],[114,92]],[[82234,81387],[-180,28],[-44,112],[66,-4],[158,-136]],[[87838,81717],[-77,-87],[-121,21],[241,118],[59,-34],[-102,-18]],[[84808,81665],[-3,92],[95,23],[26,-80],[-118,-35]],[[86167,81553],[-43,-35],[-189,1],[52,62],[180,-28]],[[85057,81789],[-8,-54],[-74,-12],[-40,54],[122,12]],[[84142,81002],[71,-9],[-47,-80],[-24,89]],[[84253,81339],[-37,-43],[-101,25],[9,16],[129,2]],[[83692,81496],[-23,73],[114,9],[-68,-57],[47,-24],[-70,-1]],[[88080,81711],[32,53],[87,-25],[-7,-13],[-112,-15]],[[84707,81684],[-19,32],[86,36],[-1,-34],[-66,-34]],[[82002,81335],[-25,58],[19,27],[21,-47],[-15,-38]],[[84535,81750],[28,-21],[-104,-50],[76,71]],[[80729,80617],[24,-61],[-11,4],[-13,57]],[[79816,81735],[21,-13],[-22,-15],[1,28]],[[84358,81660],[32,-3],[-26,-31],[-6,34]],[[79653,80575],[31,1],[-4,-9],[-27,8]],[[83841,81309],[27,4],[-8,-12],[-19,8]],[[84758,81769],[-9,13],[26,-4],[-17,-9]],[[84723,81680],[21,4],[-7,-7],[-14,3]],[[84536,81698],[17,11],[0,-5],[-17,-6]],[[84566,81705],[5,2],[5,-7],[-10,5]],[[85421,81941],[-12,29],[158,69],[21,-25],[-76,-46],[71,-46],[-162,19]],[[85441,81910],[-51,-29],[38,-1],[-84,-40],[35,56],[-36,20],[98,-6]],[[66671,86118],[0,784],[-2319,0],[-1588,44],[74,80],[-36,30],[43,26],[-53,32],[50,106],[153,108],[-49,195],[41,125],[309,271],[-36,60],[47,130],[130,75],[126,229],[295,105],[78,129],[95,21],[99,90],[-33,43],[49,52],[-71,34],[42,52],[-31,29],[70,39],[-78,202],[0,2000],[435,420],[7,405],[-462,139],[-6,612]],[[64052,92785],[54,-64],[117,6],[209,-299],[436,-47],[64,-32],[-16,-348],[152,-122],[320,-21],[234,-111],[335,55],[387,-98],[160,-94],[229,-279],[365,-171],[194,-143],[310,36],[119,61],[249,18],[83,48],[157,-36],[67,40],[80,-66],[87,-16],[51,-103],[118,-17],[248,-112],[18,-38],[157,-38],[67,9],[-4,38],[-93,92],[-105,79],[-200,57],[45,54],[-74,53],[-107,48],[-121,-11],[30,53],[228,-34],[114,26],[42,-46],[110,-13],[663,66],[192,-194],[238,-29],[419,79],[113,103],[-430,-76],[-311,102],[-155,132],[-215,-2],[-134,93],[-137,-5],[-64,28],[142,49],[372,17],[169,103],[81,-16],[153,36],[139,114],[-153,52],[16,77],[242,79],[269,36],[85,58],[-27,30],[115,61],[191,-57],[125,27],[20,46],[279,-6],[-177,-118],[102,-93],[412,3],[185,31],[423,156],[135,173],[213,-30],[69,-153],[273,-83],[307,95],[156,92],[274,73],[206,147],[353,34],[81,61],[175,18],[199,83],[270,1],[639,186],[854,101],[275,91],[24,-46],[-394,-180],[-59,8],[28,40],[-51,22],[-105,-36],[-321,-21],[-51,-66],[68,-44],[-358,-156],[-68,-66],[-241,-65],[-158,-157],[-2,-77],[-135,-10],[-26,-66],[-145,0],[-34,-72],[-151,-14],[-153,-148],[-516,-199],[-50,-218],[88,-158],[254,-210],[322,-111],[136,-132],[5,-38],[-161,-148],[37,-9],[198,105],[192,213],[223,55],[43,-104],[116,165],[-16,139],[191,66],[86,104],[144,-14],[15,70],[82,41],[70,-47],[55,6],[29,57],[82,-32],[78,27],[16,88],[115,-28],[52,69],[-40,36],[213,54],[-71,-128],[58,-18],[-32,-45],[71,-8],[52,-71],[90,164],[100,45],[23,55],[113,7],[20,-84],[55,-2],[68,29],[2,93],[88,-58],[50,6],[18,89],[16,-88],[96,-2],[47,35],[-39,63],[126,-7],[330,134],[8,64],[-58,17],[76,39],[-70,47],[68,57],[59,-23],[26,53],[224,20],[34,65],[70,-20],[51,46],[-2,-21],[-49,-44],[40,-21],[-85,-68],[-93,-7],[-183,-245],[-109,-34],[-207,-152],[-107,-223],[-181,18],[-43,-37],[25,-60],[-143,-8],[-158,-145],[29,-92],[279,-94],[-18,-77],[159,-88],[162,38],[66,-24],[136,25],[131,229],[148,-45],[243,55],[137,-59],[22,-54],[-45,-9],[-56,-125],[-71,-18],[-52,37],[-106,-33],[-43,-164],[-145,52],[-83,-13],[-20,-44],[133,-75],[46,-76],[-66,-2],[-102,-73],[-137,-194],[-113,-1],[-106,-62],[-106,-282],[59,10],[69,110],[237,-42],[172,27],[-72,-152],[-82,-42],[-54,-91],[95,-106],[145,-31],[-14,-220],[160,125],[64,-1],[-38,-59],[45,-4],[101,88],[7,111],[192,160],[129,-38],[-29,-74],[135,-71],[208,23],[39,99],[157,-62],[326,85],[101,-72],[3,-105],[399,-36],[298,39],[17,-44],[-83,-58],[33,-10],[176,164],[360,139],[397,219],[80,123],[-84,31],[6,75],[238,142],[90,140],[0,49],[-99,59],[60,32],[138,4],[104,97],[20,82],[-109,41],[-6,41],[395,77],[-10,21],[-162,-21],[-140,245],[-132,58],[-149,11],[-113,-56],[-253,41],[-710,-60],[-22,96],[-119,94],[-85,4],[-202,-75],[-227,28],[-17,95],[83,49],[-97,45],[101,33],[204,-34],[132,78],[109,-9],[-47,139],[218,-6],[-37,32],[43,77],[142,25],[26,87],[218,179],[-26,39],[418,119],[76,-46],[149,31],[42,38],[63,-100],[106,20],[-4,61],[89,30],[-60,69],[122,12],[27,65],[139,-42],[-21,111],[126,-59],[58,69],[-34,31],[53,19],[-55,27],[382,269],[115,-5],[61,-83],[160,101],[23,59],[-83,15],[32,21],[188,-9],[102,-60],[239,-7],[190,39],[71,73],[26,-39],[80,17],[40,46],[-27,56],[71,60],[23,-26],[124,9],[41,-39],[148,37],[136,104],[-181,102],[53,66],[66,-45],[13,-79],[144,-57],[-18,-78],[-372,-176],[-578,-111],[-264,-15],[-33,-140],[45,-101],[-175,128],[-84,-46],[36,-89],[-22,-17],[-50,42],[-8,-22],[56,-29],[75,17],[-14,-40],[91,2],[61,39],[68,-105],[155,-60],[-41,-34],[52,-10],[-7,-40],[39,11],[-15,54],[32,-40],[35,20],[5,23],[-58,21],[61,-11],[-40,41],[59,17],[-61,43],[116,48],[-23,43],[145,62],[161,-26],[113,-262],[236,-317],[100,-53],[171,18],[41,-70],[-99,-81],[57,-127],[-66,-36],[-16,-148],[195,-209],[63,-137],[248,-123],[239,-71],[27,-231],[134,-34],[44,-54],[56,38],[144,-19],[101,35],[74,-67],[98,-18],[88,44],[64,97],[60,-59],[170,23],[148,157],[107,39],[-30,63],[-126,2],[-28,124],[-152,-28],[-70,-76],[-62,3],[96,65],[-16,42],[-79,11],[-71,74],[-193,71],[-80,-38],[-94,6],[-59,-47],[31,102],[34,25],[306,-28],[163,35],[18,64],[605,87],[52,-37],[43,-141],[63,-3],[184,-142],[94,-34],[83,21],[143,-30],[84,24],[257,-55],[146,-186],[190,-6],[-15,-212],[122,-21],[39,44],[123,-31],[19,-155],[103,-118],[-44,-84],[-37,10],[-44,-59],[-126,7],[-76,-95],[-119,-48],[-221,-31],[-78,-97],[35,16],[58,69],[31,9],[316,-1],[125,166],[243,-101],[122,5],[126,53],[-8,61],[160,-34],[-194,-125],[20,-66],[-201,32],[-480,-138],[-136,-155],[-221,-78],[-230,-140],[-494,-400],[-258,-99],[-103,-96],[-1,-129],[-131,197],[152,102],[13,94],[162,-3],[57,26],[-18,271],[-136,21],[-261,-125],[-359,-95],[42,0],[-82,-67],[47,-74],[144,-48],[38,-57],[-50,-41],[-101,15],[-24,-37],[65,-46],[158,32],[17,-21],[-112,-132],[-84,-61],[-61,65],[-113,-27],[46,4],[-57,-64],[-198,11],[-38,-143],[-73,-13],[-119,46],[-70,-21],[-3,-41],[124,-86],[-39,66],[53,-33],[14,51],[146,28],[12,116],[207,-18],[89,60],[123,-54],[102,75],[-30,32],[66,25],[81,-35],[-5,-58],[92,-46],[-2,-35],[-163,22],[-207,-69],[-278,-168],[-122,-120],[-161,-267],[42,-25],[-10,-104],[202,-105],[-56,-47],[-95,-14],[-99,57],[-158,-52],[-115,2],[-42,60],[-175,23],[-295,-155],[-42,-160],[202,-67],[-11,-60],[59,-44],[-180,-281],[143,-163],[-407,141],[-48,129],[52,187],[-208,50],[-38,57],[-117,24],[-24,70],[-190,-28],[-93,-92],[42,-45],[-31,-62],[103,-117],[-47,-57],[127,-39],[-289,2],[-99,109],[-139,41],[-123,100],[-207,-80],[36,-93],[219,-45],[22,-79],[-98,-20],[-42,-78],[52,-99],[256,-51],[46,-111],[100,-52],[77,12],[148,-51],[155,49],[20,-41],[-130,-103],[42,-136],[112,-22],[24,38],[175,-71],[257,-35],[72,-56],[81,9],[152,-107],[142,18],[-24,-33],[106,-237],[110,-12],[143,-76],[-146,-76],[-286,-9],[65,97],[-90,54],[9,131],[-79,45],[-223,-45],[-44,-34],[14,-67],[-180,-59],[-35,-44],[85,-39],[-26,-49],[-155,33],[-85,-34],[10,87],[66,46],[-50,5],[3,41],[-151,31],[150,44],[-96,108],[-143,-53],[-49,15],[40,-57],[-122,-25],[2,-64],[-137,103],[-202,-41],[-99,-65],[-193,101],[-65,-13],[-65,38],[-104,-39],[-3,-83],[272,-26],[28,-76],[44,64],[74,-23],[57,47],[126,-17],[29,-128],[91,4],[122,-50],[65,25],[-55,-98],[37,-125],[90,-35],[78,20],[202,-29],[-302,-331],[-120,-249],[29,-50],[-114,16],[-36,66],[-80,16],[-104,-15],[-198,-127],[-47,-55],[2,-82],[47,-26],[-68,-30],[-52,-108],[30,-186],[-130,-111],[-95,-26],[-99,44],[83,159],[-102,49],[-61,-6],[-29,-86],[-228,-23],[-198,-67],[-277,-311],[-331,-227],[-146,10],[10,81],[-97,19],[-45,69],[144,56],[69,85],[-6,69],[-108,68],[3,43],[251,28],[81,-56],[112,13],[135,62],[90,111],[-76,55],[-6,97],[-162,45],[38,194],[-150,129],[168,54],[-37,61],[-80,9],[17,49],[-85,35],[174,65],[-74,92],[95,132],[-84,109],[-329,78],[-25,82],[-9,-99],[-261,-167],[-19,-140],[-110,-29],[-61,-62],[221,-8],[112,-75],[-18,-60],[-142,-101],[102,-101],[-85,-48],[-286,-11],[-4,132],[108,0],[-3,8],[-37,13],[-69,-16],[-18,-57],[-57,-13],[-211,23],[-26,93],[56,54],[-60,75],[-42,-78],[-75,-29],[-1,-58],[-81,5],[-121,66],[-68,-12],[-14,-31],[64,-36],[-106,-50],[193,-4],[50,-92],[129,-24],[-85,-22],[-48,-69],[102,-184],[-75,66],[-182,13],[-77,-42],[-42,-115],[31,-46],[-142,-93],[-171,16],[-111,78],[-147,-59],[-31,-68],[84,-81],[185,-67],[-28,-47],[-72,0],[-50,57],[-168,45],[-31,129],[-74,76],[26,101],[-153,85],[63,38],[-32,46],[149,74],[24,265],[-81,151],[-531,-269],[8,-37],[106,-37],[-329,-237],[70,-162],[-40,-17],[-214,58],[-128,-85],[1,-67],[133,-90],[-85,-67],[-11,-188],[-79,-59],[-113,70],[60,65],[-125,306],[-76,43],[-76,130],[-205,35],[-246,-133],[-3,-107],[-65,-125],[-69,-36],[7,-148],[-193,283],[-314,-115],[-107,-113],[45,-51],[-281,-175],[-89,-272],[131,-65],[105,1],[53,-49],[167,7],[1,-29]],[[86632,91508],[0,11],[-52,-2],[-19,13]],[[78652,95376],[-15,119],[137,30],[-40,-128],[-82,-21]],[[79022,95763],[123,12],[-89,-145],[-67,-10],[33,143]],[[80322,82998],[17,-3],[-8,-7],[-9,10]],[[80491,83155],[-56,40],[90,45],[83,-69],[180,-59],[29,-46],[-53,-34],[-173,88],[-67,-11],[-14,-43],[-19,89]],[[85208,86989],[77,0],[33,-43],[-16,-8],[-94,51]],[[86501,92472],[36,2],[-10,-6],[-26,4]],[[85311,93926],[124,10],[-229,-107],[-278,-10],[383,107]],[[78258,94068],[-165,-72],[143,196],[106,-15],[-84,-109]],[[70091,94547],[8,7],[6,-7],[-14,0]],[[79504,94756],[-10,-50],[-134,-93],[-121,-39],[-67,96],[175,90],[-34,97],[90,-9],[101,-92]],[[68363,94743],[-33,84],[83,9],[56,-81],[85,-34],[-28,-39],[-63,6],[-100,55]],[[86935,95014],[104,13],[55,-54],[-140,-74],[-170,14],[151,101]],[[80321,83195],[-42,8],[-16,9],[60,8],[-2,-25]],[[84692,86998],[-40,70],[96,26],[43,-69],[-99,-27]],[[84135,93615],[-17,33],[108,-1],[-4,-24],[-87,-8]],[[80124,95169],[-33,-36],[-133,70],[-34,109],[112,4],[88,-147]],[[78647,83024],[-43,16],[80,43],[-39,64],[52,41],[40,-57],[164,-15],[93,-70],[-35,-43],[-271,-6],[-56,-81],[15,108]],[[78964,83169],[-5,28],[36,10],[22,-27],[-53,-11]],[[78573,83171],[-3,29],[11,6],[31,-27],[-39,-8]],[[64800,92442],[-302,55],[-90,54],[4,66],[71,44],[91,-32],[23,-36],[203,-151]],[[83522,94169],[201,62],[-3,109],[48,-60],[98,-18],[-34,-53],[164,-7],[-11,92],[65,-56],[98,-14],[-58,48],[56,4],[0,34],[-78,32],[148,-37],[101,10],[2,47],[-104,17],[105,26],[-8,44],[195,-8],[53,-40],[55,86],[146,-15],[-144,-82],[-250,-70],[-86,-75],[56,-48],[-57,-29],[-180,-39],[-225,2],[-402,-88],[49,126]],[[77687,94711],[-98,-73],[-326,100],[-41,55],[40,86],[97,60],[698,211],[104,-55],[171,14],[63,-58],[-245,-131],[-41,-86],[-149,-45],[-182,-160],[-71,-21],[-20,103]],[[78397,95127],[76,96],[65,-58],[-57,-73],[-84,35]],[[85361,98481],[46,22],[120,-36],[-166,14]],[[85819,98837],[-77,41],[121,-11],[18,-18],[-62,-12]],[[85396,97889],[3,6],[23,-17],[-26,11]],[[85361,97846],[-1,6],[14,-1],[-13,-5]],[[83326,96671],[49,-16],[-37,21],[-55,4],[38,107],[194,-11],[24,59],[157,61],[20,64],[122,-12],[102,66],[-46,66],[74,26],[64,-33],[70,35],[-26,51],[125,26],[42,49],[-49,49],[120,196],[-48,35],[182,104],[80,138],[71,-7],[81,57],[62,208],[38,-45],[163,22],[92,133],[102,35],[114,-86],[167,25],[116,118],[94,38],[-27,108],[-75,11],[88,24],[-38,61],[64,86],[-141,49],[99,-25],[3,32],[144,-47],[65,100],[-86,28],[6,52],[-119,-23],[-45,55],[153,5],[133,-42],[126,136],[-33,107],[-234,47],[141,97],[111,-72],[19,24],[92,-5],[-98,93],[109,48],[51,-21],[96,77],[79,-95],[-104,-78],[-115,-191],[25,-46],[-56,-115],[-51,-12],[-58,-103],[11,-104],[-149,-124],[-83,-181],[53,-119],[-93,-6],[-24,-80],[-157,-77],[-122,35],[-15,-32],[-176,-41],[78,-28],[8,-60],[107,-73],[-76,26],[-85,-15],[-79,-111],[-80,28],[-75,-25],[-36,-117],[-100,-9],[-42,29],[-76,-38],[90,-70],[-122,-62],[65,-28],[-1,-32],[-61,-2],[44,-101],[-126,-2],[-184,-125],[9,-75],[-60,-16],[-68,-144],[-293,-102],[3,-61],[-75,-57],[-198,-63],[39,-43],[-79,-72],[-135,-10],[32,71],[-96,13],[-194,-64],[-11,-66],[49,-23],[-104,-39],[-213,81],[259,89],[-21,47],[65,39],[-29,91]],[[85989,99332],[167,-21],[41,63],[63,-31],[-95,-84],[-78,-15],[-98,88]],[[85831,98911],[15,28],[61,-13],[-20,-13],[-56,-2]],[[79357,82659],[99,72],[-19,45],[-97,54],[-136,-36],[46,104],[-118,33],[161,200],[-87,87],[22,69],[128,65],[-86,86],[-11,85],[-70,23],[2,101],[-181,60],[-226,-1],[24,51],[163,-25],[95,26],[41,-63],[185,-55],[57,-73],[109,9],[18,-106],[114,-115],[203,-54],[-61,-31],[21,-45],[240,-107],[71,17],[-65,-121],[-67,-19],[-105,56],[-91,-6],[-91,-42],[22,-55],[-48,-35],[-159,69],[-10,46],[-91,-19],[57,-142],[47,-21],[54,26],[135,-123],[-23,-89],[-113,31],[-70,-39],[-39,-131],[49,-94],[-48,-25],[-48,18],[-11,-32],[-62,49],[16,50],[-111,41],[69,58],[82,11],[14,62]],[[78860,84124],[-59,-126],[-111,59],[-43,100],[164,6],[49,-39]],[[77525,83852],[-163,91],[-1,58],[73,-17],[91,-132]],[[81931,84013],[-40,41],[151,-1],[-18,-25],[-93,-15]],[[78374,83915],[24,0],[-14,-20],[-10,20]],[[87871,91053],[68,-8],[-36,-10],[-32,18]],[[77131,94469],[126,-10],[10,65],[263,2],[-1,-65],[-90,-22],[-16,-57],[-98,-50],[-195,-28],[1,165]],[[78602,94273],[70,70],[-38,51],[185,25],[87,47],[26,-48],[-127,-30],[-123,-125],[-80,10]],[[78279,90751],[34,112],[174,14],[81,46],[-56,-85],[-106,-18],[-56,-124],[-71,55]],[[78002,89567],[17,65],[35,19],[3,-41],[-55,-43]],[[85832,86892],[57,19],[16,-30],[-73,11]],[[79713,90313],[12,-18],[-76,-10],[64,28]],[[83010,93806],[-66,-4],[47,90],[83,18],[52,57],[-37,106],[148,-13],[77,58],[0,-106],[-69,-43],[96,-8],[-236,-194],[78,-258],[-85,-87],[-160,-34],[56,50],[-105,39],[43,11],[-36,20],[49,57],[73,1],[-120,71],[68,53],[94,0],[-50,116]],[[82433,93590],[51,-2],[39,55],[71,-95],[-18,-92],[-249,4],[-86,-27],[51,-19],[-39,-19],[-207,-26],[-185,22],[135,5],[214,87],[-24,80],[93,24],[64,-28],[-7,100],[-63,36],[53,23],[107,-128]],[[77187,93385],[21,92],[-72,72],[275,88],[183,123],[103,-16],[-130,-44],[-107,-132],[-96,-17],[-53,-122],[-124,-44]],[[82876,93437],[5,-105],[-52,-32],[-177,-20],[-43,11],[267,146]],[[72899,92514],[44,214],[206,133],[60,85],[-1,40],[-82,26],[146,70],[136,-72],[143,10],[-49,-67],[181,-32],[280,60],[155,134],[-51,61],[131,23],[247,-40],[174,44],[79,-40],[126,-6],[267,123],[34,56],[175,-4],[305,156],[312,190],[35,148],[183,-70],[214,97],[137,196],[68,6],[-38,76],[-133,6],[-87,51],[-12,105],[119,75],[158,-42],[192,34],[34,-73],[201,-45],[111,-191],[-193,-39],[-142,-91],[-82,-188],[-474,-174],[-207,-162],[-126,-173],[-338,-232],[-238,-80],[-196,35],[-179,-28],[-75,-177],[-370,-9],[-733,-99],[-138,-75],[-203,-23],[-124,-73],[-31,-81],[-120,6],[-162,-108],[-25,98],[-117,52],[73,84]],[[79343,92497],[-105,-10],[27,98],[141,-13],[5,-71],[109,-20],[173,64],[-9,119],[154,-109],[87,14],[-65,66],[80,43],[-52,69],[111,-32],[39,65],[54,-79],[-99,-84],[213,-102],[67,62],[140,11],[213,83],[1,39],[56,13],[37,-30],[71,40],[57,73],[-28,32],[76,32],[-19,37],[392,19],[-108,-131],[90,55],[59,-47],[-96,-132],[-235,-59],[-121,-91],[-392,-56],[-245,-93],[-100,13],[-148,-37],[39,-54],[-76,-50],[-182,-1],[-185,74],[-361,-55],[1,42],[-69,46],[-42,-9],[3,73],[53,-41],[81,34],[55,-56],[81,2],[67,25],[-95,119]],[[65755,91996],[26,-17],[-93,-29],[54,-13],[-40,-55],[-125,-56],[-362,88],[6,58],[-64,55],[24,259],[-116,53],[-93,116],[80,19],[294,-138],[324,-34],[214,-153],[-129,-153]],[[65665,92533],[1,67],[503,52],[172,-93],[226,-46],[-307,-104],[-50,-92],[-195,22],[-82,109],[-268,85]],[[67290,93060],[-106,97],[106,136],[120,-20],[176,44],[442,-78],[-145,-90],[-207,3],[-113,-58],[-273,-34]],[[86630,92054],[57,61],[-46,54],[297,105],[-22,-318],[68,-96],[-149,-42],[-167,61],[-38,175]],[[79445,91598],[10,-77],[60,-26],[-58,-35],[-428,-29],[-85,60],[11,64],[130,24],[41,61],[89,-65],[112,56],[118,-33]],[[65004,92671],[-17,20],[182,-83],[-20,-61],[-138,-50],[-239,65],[-21,53],[91,82],[162,-26]],[[78072,92067],[103,70],[131,-64],[-114,-26],[45,-145],[-90,-45],[-37,-162],[-38,372]],[[66577,92121],[-170,166],[19,29],[181,-31],[71,-49],[17,-100],[-118,-15]],[[66037,92282],[129,-16],[55,-74],[-26,-72],[-73,16],[-85,146]],[[85522,91366],[143,43],[25,-50],[-17,-93],[-94,-42],[-64,45],[100,64],[-93,33]],[[65769,92357],[13,49],[75,-10],[45,-86],[-61,13],[-72,34]],[[81370,93008],[7,28],[105,14],[-56,45],[55,22],[32,-102],[-143,-7]],[[78054,91486],[-39,-32],[59,197],[-20,-165]],[[81376,92946],[-51,-4],[-43,57],[21,6],[73,-59]],[[79550,91556],[-47,3],[-18,15],[49,7],[16,-25]],[[78885,92308],[-25,-54],[0,33],[25,21]],[[81303,92868],[40,25],[11,-22],[-51,-3]],[[77981,91368],[-34,-66],[-4,7],[38,59]],[[72298,92635],[13,-35],[-8,-3],[-5,38]],[[72398,92354],[2,26],[30,2],[-16,-8],[-16,-20]],[[85564,91178],[-63,-26],[-1,2],[64,24]],[[85257,91547],[4,3],[19,-11],[-23,8]],[[87427,92155],[9,12],[8,-2],[-17,-10]],[[86111,91681],[31,9],[-8,-9],[-23,0]],[[85270,91144],[1,2],[14,-3],[-15,1]],[[85291,91181],[-8,3],[8,3],[0,-6]],[[81273,95453],[-188,0],[-18,86],[92,9],[60,51],[151,-108],[53,32],[163,-53],[-44,68],[113,16],[-36,87],[151,30],[23,65],[85,-50],[43,-58],[-50,-35],[37,-10],[-18,-52],[84,-8],[-5,-30],[-131,-83],[-100,33],[-205,-81],[13,-68],[-66,-43],[-36,38],[-138,0],[-227,-160],[-69,131],[-70,13],[-52,-28],[-76,55],[-177,-105],[77,-3],[46,36],[61,-19],[-111,-220],[-226,7],[-135,-44],[6,82],[-80,23],[-118,-43],[40,-40],[-43,-10],[15,-50],[-118,58],[-37,-58],[-98,-16],[-116,-81],[-121,-40],[-124,10],[50,102],[43,-23],[142,23],[-142,140],[42,39],[-60,9],[3,34],[43,24],[56,-39],[190,2],[168,-70],[24,102],[37,-25],[111,26],[88,-29],[-34,71],[53,11],[2,36],[-102,29],[-4,35],[100,-32],[126,24],[29,60],[-76,66],[131,48],[7,47],[143,92],[51,-11],[-30,-41],[39,-54],[49,53],[64,-21],[8,-142],[33,24],[47,-31],[45,28],[54,-23],[45,33],[215,-31],[-70,80]],[[81926,95643],[-73,155],[-36,0],[41,43],[77,-77],[103,-1],[-22,53],[70,43],[-16,41],[176,22],[16,-37],[214,99],[101,93],[-15,52],[103,-36],[119,21],[-35,47],[101,77],[197,48],[-11,-115],[-126,-99],[61,-54],[-97,-91],[-72,10],[-14,-82],[-274,-36],[46,-65],[-174,26],[-95,-33],[-4,-51],[-144,1],[-36,-34],[-181,-20]],[[86561,91530],[71,-22]],[[86632,91508],[-260,-42],[-44,-44],[-72,78],[68,8],[0,158],[114,19],[123,-155]],[[44433,83451],[2,1831]],[[44435,85282],[20477,-51],[168,242],[339,127],[249,223],[33,139],[225,162],[115,-32],[312,101],[318,-75]],[[66671,86118],[0,-6615]],[[59161,61960],[1316,-1]],[[60477,61959],[0,-1449],[-9494,1],[0,-1697],[-3323,-2],[-83,193],[-249,22],[0,97],[-531,0],[0,1392],[-2764,-1],[10,483],[-2516,0],[0,1389]],[[41527,62387],[-2383,-1]],[[34329,65814],[25,6305]],[[38535,76580],[-119,29],[-279,188]],[[34388,77490],[-216,98],[-119,197],[-258,181],[-69,307],[-178,93]],[[33548,78366],[-239,230],[-107,176],[-2,186],[-468,320],[839,0],[0,1494],[3821,0]],[[37392,80772],[1287,0],[1,1838],[-668,0],[1,574],[-150,32],[0,60],[150,20],[0,169],[6420,-14]],[[66671,79503],[5581,-2137],[-12,5018],[4666,1211]],[[76906,83595],[52,-92],[-73,-54],[82,-88],[430,48],[87,54],[-132,-286],[-103,-17],[-73,87],[-176,-49],[-23,-52],[93,-53],[-50,-57],[-130,29],[-76,122],[-147,33],[-57,92],[-242,-25],[-143,-75],[-24,-100],[68,-143],[-67,-35],[52,-81],[-81,-169],[111,-76],[47,-201],[-328,-31],[-31,-71],[48,-29],[-66,-62],[66,-42],[20,-105],[246,-61],[67,-228],[104,-82],[137,-3],[161,75],[158,-118],[-32,-39],[-137,24],[-192,-65],[-126,-82],[18,-77],[110,-107],[280,-126],[464,26],[243,77],[112,94],[1,50],[82,-27],[149,43],[37,126],[85,-19],[150,59],[-45,65],[23,80],[-63,57],[157,-27],[126,75],[274,-84],[78,13],[-83,-115],[-72,20],[-158,-72],[6,-93],[-235,-144],[40,-104],[-30,-97],[-169,-40],[-72,-66],[-1,-97],[-78,-94],[104,-244],[-267,-195],[22,-127],[-51,-127],[-213,-116],[-152,-172],[-6,-64],[-163,-29],[-348,-244],[-10,-53],[68,-67],[-20,-225],[-88,-212],[-157,-131],[-11,-88],[42,26],[11,-25],[-110,-351],[-69,-42],[179,-70],[97,-87],[-59,-22],[-59,82],[-128,1],[-372,-133],[-358,-183],[-274,-17],[32,36],[-522,-349],[-269,-40],[-182,102],[4,-25],[-48,12],[307,-168],[-186,-179],[-9,-74],[-498,-426],[53,-102],[-25,-65],[-38,-21],[-118,61],[-199,-29],[-82,21],[-32,-53],[-94,30],[-233,-224],[17,-75],[-125,-132],[-26,22],[32,-135],[-234,-65],[-51,-48],[33,-101],[-129,8],[-207,-165],[-202,-426],[101,-103],[134,-10],[17,-68],[-71,-34],[-173,30],[-50,-75],[-114,-7],[-54,-67],[-163,58],[-220,-58],[-193,-117],[-80,-4],[12,-50],[-76,-80],[-204,-141],[-123,-11],[-133,116],[-125,-44],[130,-305],[0,-244],[212,-279],[-21,-148],[51,16],[195,-203],[-22,-62],[437,-395],[198,-112],[-2,19],[-139,69],[304,-96],[312,-191],[108,-13],[-49,31],[125,-37],[312,-118],[48,-49],[360,-45],[304,51],[180,-49],[125,-56],[81,-99],[143,-11],[162,-71],[22,-61],[144,-46],[81,-84],[161,20],[115,-21],[564,-227],[701,-212],[409,-219],[284,-221],[462,-154],[165,-97],[683,-179],[24,-33],[51,15],[43,-61],[199,-87],[646,-167],[389,-186],[501,-3],[-29,-55],[362,-99],[20,-216],[136,-233],[105,-85],[80,-259],[221,-242],[300,-115],[39,-80],[-70,-83],[33,-78],[27,14],[-39,61],[112,84],[111,-62],[-30,55],[84,-68],[164,-20],[113,21],[279,-92],[230,6],[251,-135],[381,-132],[478,-308],[277,-114],[-33,-12],[152,20],[-74,-68],[194,-19],[-32,-55],[144,57],[-101,94],[184,32],[100,-15],[240,103],[161,22],[108,56],[148,167],[232,-40],[74,97],[86,-26],[28,-111],[167,7],[85,-88],[218,3],[-113,-199],[-276,-219],[-72,-122],[-443,58],[58,-21],[-29,-44],[145,-18],[-152,-66],[286,-17],[91,-74],[-46,-61],[203,-83],[4,-58],[119,-40],[-26,-59],[74,5],[62,-45],[10,-136],[-100,-24],[48,-34],[-127,-27],[-86,-88],[173,-184],[257,-8],[466,285],[43,-34],[-23,-79],[-139,-65],[281,89],[108,-60],[1,49],[301,35],[136,-60],[235,5],[8,-29],[-85,-29],[190,17],[58,-66],[179,9],[11,-66],[23,10],[23,39],[44,-28],[125,4],[-39,-53],[289,21],[91,-33],[61,36],[99,-36],[-39,47],[-344,93],[-67,116],[297,129],[71,-11],[109,52],[164,-6],[-46,88],[130,71],[53,-40],[-54,-19],[110,-39],[-5,-63],[127,-36],[6,36],[73,-27],[-88,65],[62,-24],[495,-326],[65,8],[330,-153],[826,-168],[513,-198],[559,-86],[143,-99],[74,-123],[389,-260],[-83,41],[-73,-14],[63,6],[227,-127],[370,-104],[203,-122],[11,46],[87,-70],[27,34],[-39,-1],[-50,44],[-210,65],[350,-73],[231,-117],[184,33],[315,-48],[493,-142],[98,21],[341,-67],[211,4],[-252,67],[439,-70],[346,-77],[210,-93],[61,1],[-91,40],[661,-186],[392,-45],[117,-45],[-78,41],[126,-22],[98,-96],[15,-94],[95,-22],[216,-137],[233,-267],[444,-303],[358,-338],[830,-391],[38,-24],[-37,-33],[42,16],[176,-133],[425,-201],[7,-7110]],[[99957,55574],[-4481,0],[0,739],[-8509,0],[0,299],[-8498,0],[-10,1253],[-1998,0],[0,2067],[659,230],[-1821,834],[0,-1064],[-2131,0],[0,-1107],[-5659,-5],[2,4103],[-2530,0],[0,-963]],[[64981,61960],[-5820,0]],[[59161,61960],[0,8158],[-5159,1],[3,3471],[430,-59],[209,24],[182,-59],[196,6],[387,97],[192,86],[-100,-3],[0,182],[227,66],[-1,-159],[-70,-44],[42,-117],[-34,-207],[104,1],[-10,-103],[-59,-3],[47,-211],[-30,-65],[5707,1],[1,1054],[-1379,0],[0,833],[-318,49],[-149,199],[107,61],[-117,104],[82,78],[-84,31],[-40,107],[-133,78],[-212,26],[-279,-113],[-164,-20],[-1,2077],[4246,13],[23,1901],[3664,2]],[[88405,69538],[-66,3],[-3,4],[66,24],[3,-31]],[[87982,69589],[16,25],[24,-22],[-40,-3]],[[75343,72205],[9,46],[105,21],[-37,-43],[-77,-24]],[[74334,73499],[6,48],[218,108],[80,3],[46,144],[-116,22],[-12,34],[71,7],[111,107],[240,-12],[131,-74],[99,-182],[-46,-176],[-121,39],[-159,-20],[-75,44],[-268,-137],[-109,52],[-96,-7]],[[73355,76162],[18,92],[243,13],[56,-35],[-199,-163],[-118,93]],[[74840,77595],[-24,-47],[-54,25],[19,15],[59,7]],[[76319,76612],[84,54],[-1,-10],[-83,-44]],[[76445,76700],[29,35],[-10,-25],[-19,-10]],[[75964,78003],[3,2],[28,-6],[-31,4]],[[73455,75963],[9,3],[5,-13],[-14,10]],[[76420,76683],[10,10],[4,-5],[-14,-5]],[[89724,67214],[-62,-77],[-17,55],[79,22]],[[90073,67927],[10,-26],[-45,3],[35,23]],[[89782,68560],[-8,3],[39,18],[-31,-21]],[[89736,68651],[18,26],[24,-23],[-42,-3]],[[90035,68006],[12,1],[6,-11],[-18,10]],[[90021,68021],[11,6],[6,-10],[-17,4]],[[72235,74972],[-9,16],[53,-8],[-44,-8]],[[88298,68019],[-52,-44],[13,90],[-149,5],[121,37],[-43,36],[43,35],[-62,37],[45,16],[-50,26],[61,17],[-8,38],[-141,1],[-79,45],[233,-15],[88,55],[-75,25],[70,59],[-124,19],[145,14],[130,121],[112,-34],[-19,-106],[164,-39],[-3,-49],[76,11],[53,92],[-88,-14],[-71,32],[-49,144],[101,2],[156,75],[12,71],[-72,46],[24,39],[-59,98],[87,-5],[53,-47],[54,37],[206,-125],[-51,-35],[78,-61],[25,-92],[249,-42],[69,36],[-26,44],[75,10],[29,-30],[-87,-66],[36,-76],[110,22],[96,-42],[-62,-39],[57,-18],[-40,-129],[88,-193],[-43,-16],[-43,-185],[58,-31],[-106,14],[26,-31],[51,5],[-21,-72],[308,-89],[-94,-252],[-103,-24],[-53,-73],[-121,-51],[24,-78],[-157,51],[-66,-18],[-167,38],[46,121],[-106,133],[-202,-56],[-263,89],[33,38],[-92,90],[23,81],[-63,17],[-55,-26],[40,82],[-141,4],[123,56],[-69,20],[92,93],[-50,74],[-161,-121],[-39,125],[-67,10],[-74,-49],[19,-82],[70,-44],[-19,-22],[-87,45]],[[84644,69197],[-62,-41],[-77,5],[-32,-106],[-60,-30],[28,-194],[64,-30],[-65,-32],[67,-25],[-119,-15],[-51,-128],[-215,-27],[-216,63],[-130,-92],[-182,-4],[-99,11],[-94,61],[-119,0],[207,138],[-19,116],[-79,87],[172,105],[23,87],[-43,60],[-86,24],[6,39],[163,41],[-4,49],[188,-24],[273,26],[78,54],[-10,52],[63,25],[353,-86],[59,-119],[-41,-31],[59,-59]],[[86122,68592],[170,42],[162,-52],[161,21],[143,-68],[240,-51],[-27,-30],[63,-37],[-48,-25],[60,-19],[-20,-41],[61,-9],[-144,-6],[-115,-80],[-126,16],[20,84],[-183,-10],[-92,-97],[66,-34],[141,21],[-14,-50],[81,-18],[3,-68],[-144,-32],[-167,-117],[-129,24],[-208,-48],[-86,-84],[-112,75],[-2,104],[100,74],[15,80],[117,-42],[25,39],[-60,53],[-112,-3],[-68,33],[79,21],[-25,129],[72,32],[-71,166],[49,23],[125,-16]],[[87473,68832],[-21,50],[-89,-29],[149,-65],[27,35],[45,-11],[-48,-57],[36,-97],[-50,25],[-342,-94],[-91,123],[108,-12],[52,38],[-101,48],[-145,-3],[150,50],[-22,42],[-109,-6],[21,49],[252,104],[-36,79],[-118,46],[33,91],[-38,45],[210,64],[29,44],[-51,32],[98,91],[-5,-56],[61,-9],[92,78],[35,-43],[-39,-96],[-72,-36],[88,-60],[100,-255],[158,-70],[-102,-56],[-54,-7],[-45,37],[-27,-85],[-139,-24]],[[87088,69122],[37,-89],[-54,-31],[-360,12],[-83,66],[-158,-62],[-89,25],[216,123],[133,-19],[28,32],[206,-16],[88,33],[19,-53],[-87,-47],[104,26]],[[86568,68808],[-4,35],[-143,5],[135,112],[264,-33],[66,-47],[-140,-53],[-46,17],[-132,-36]],[[84972,68858],[88,86],[131,-10],[33,30],[36,-15],[-48,-26],[143,-57],[-82,-45],[-301,37]],[[86842,67935],[28,38],[-60,19],[-57,-58],[-70,25],[-13,92],[213,30],[120,-46],[-132,1],[35,-77],[-64,-24]],[[88328,67843],[-32,-22],[44,-62],[-36,-32],[-74,63],[98,53]],[[88648,68907],[48,6],[-29,-56],[-19,50]],[[85761,67825],[-17,29],[20,15],[60,-42],[-63,-2]],[[87823,68798],[54,63],[25,-46],[-79,-17]],[[85883,68578],[33,-57],[-58,11],[25,46]],[[83442,69366],[-17,23],[85,51],[-45,-34],[-23,-40]],[[85063,69018],[43,-6],[-33,-41],[-10,47]],[[87583,68138],[61,-8],[-37,-15],[-24,23]],[[85788,68816],[-52,-1],[1,22],[51,-21]],[[88578,68575],[9,15],[37,-18],[-46,3]],[[88111,68723],[60,-6],[-13,-6],[-47,12]],[[88484,68992],[-15,-16],[-22,27],[37,-11]],[[85885,68145],[20,15],[11,-25],[-31,10]],[[87028,68486],[-11,14],[46,-17],[-35,3]],[[88430,67671],[13,5],[13,-12],[-26,7]],[[86986,68122],[29,16],[6,-3],[-35,-13]],[[87218,69077],[-2,7],[20,4],[-18,-11]],[[86368,67867],[5,15],[13,-11],[-18,-4]],[[86652,67928],[0,12],[18,-3],[-18,-9]],[[87754,68190],[16,12],[10,-7],[-26,-5]],[[85308,68970],[17,-4],[-8,-3],[-9,7]],[[87607,69325],[13,-3],[-3,-3],[-10,6]],[[29715,76855],[58,72],[105,-9],[74,70],[192,59]],[[30144,77047],[74,62],[159,21],[198,-23]],[[30575,77107],[252,79],[162,-36],[120,72],[116,145]],[[31225,77367],[429,75],[303,162]],[[31957,77604],[19,146],[122,26],[156,119],[179,22],[145,152],[283,99]],[[32861,78168],[39,48],[181,26]],[[33081,78242],[197,-47],[207,6],[141,71],[131,-85]],[[33757,78187],[45,-230],[251,-172],[149,-221],[186,-74]],[[34388,77490],[451,-292],[365,-30],[205,-136],[364,-155],[667,166],[638,-68],[534,137],[1,-90],[220,-3],[113,62],[25,63],[-8,56],[-115,31],[-11,84],[401,-151],[48,-56],[-149,-311]],[[38137,76797],[310,-198],[88,-19]],[[38535,76580],[5,30],[140,24],[140,-92],[0,210],[1011,0],[3,-582],[1150,0],[0,-1179],[-176,39],[-64,105],[-340,83],[-348,-329],[0,-2770],[-5702,0]],[[34354,72119],[7,312]],[[32129,75107],[-1815,-3]],[[30314,75104],[-262,47],[18,158],[-57,88],[140,170],[-210,163],[138,56],[3,44],[-95,103],[-109,42],[-170,187],[-39,128],[72,221]],[[29743,76511],[-182,328],[154,16]],[[10565,74326],[62,-114],[122,-40],[462,-1],[459,55],[188,-25],[270,114]],[[12128,74315],[161,-81],[229,-12],[107,59],[260,-7],[29,-39],[-116,-55],[50,-68],[77,-2],[142,87],[-53,50],[46,13],[129,-80],[-1,-77],[-162,-32]],[[13026,74071],[73,-52],[107,-3],[35,-72],[127,-58],[136,-130],[169,6],[154,-125],[274,-9],[98,-36],[122,50],[248,-4],[139,49],[309,-10],[76,79],[161,51],[169,-87],[145,7],[36,104],[133,69],[140,-30],[127,-136],[122,-43],[152,107],[156,23],[32,66],[-65,52],[58,44],[100,-20],[121,-113],[253,33],[74,133],[213,-83],[245,75],[30,42],[183,-54],[323,45],[37,-52],[121,85],[94,-16],[7,1044]],[[18260,75102],[13869,5]],[[32129,75107],[0,-2679],[2232,3]],[[34361,72431],[-32,-6617]],[[34329,65814],[4786,-63],[29,-3365]],[[39144,62386],[-1343,0]],[[37801,62386],[0,-4791],[-3443,1],[6,-1923],[328,0],[0,-1468],[-5287,0],[-5,-3355]],[[29400,50850],[-11009,7]],[[18391,50857],[3,-125],[-282,-1],[-111,101],[168,25],[0,2505],[-5690,0],[0,-4886],[-12479,0]],[[0,48476],[11,25199],[335,-45],[139,-140],[138,-2],[-28,83],[132,28],[393,-159],[127,-129],[-74,-287],[27,-76],[53,12],[-21,74],[126,154],[89,27],[290,-133],[-38,-95],[37,31],[16,62],[342,-118],[-100,-250],[-114,-72],[-2,-104],[122,-165],[-32,-83],[198,-91],[57,-132],[-168,-130],[-119,-35],[3,-139],[-194,-106],[-12,-32],[20,-55],[144,12],[103,84],[47,-45],[34,3],[-12,103],[144,180],[45,-2],[-89,-81],[117,2],[216,-121],[62,8],[-48,94],[-127,53],[133,127],[32,-2],[87,41],[9,121],[-42,13],[158,112],[-143,158],[166,78],[51,146],[65,-29],[-62,-157],[59,123],[184,94],[164,-83],[96,35],[-94,-26],[-132,90],[-179,-40],[-352,163],[88,145],[-93,194],[10,217],[11,68],[77,23],[-109,95],[-35,177],[-79,94],[-1,63],[75,43],[164,-13],[-26,-74],[34,48],[211,-32],[-62,-99],[366,51],[302,-14],[191,-57],[3,-32],[170,-5],[190,-195],[277,-39],[177,-58],[6,-48],[10,49],[286,-25],[524,-130],[443,-429],[27,-148],[349,-137],[531,-393],[-19,-138],[-467,-174],[-33,-102],[71,-62],[65,18],[105,143],[364,12],[162,104],[339,-9],[157,-60],[157,39],[7,77],[-369,210],[-141,192],[9,187],[89,9],[75,56],[64,-13],[25,41],[-100,31],[-164,-71],[-48,8],[-157,227],[21,301],[-40,30],[-121,7],[-135,-61],[35,-90],[-70,22],[-104,166],[-400,421],[-127,63],[-67,167],[-335,269],[12,93],[338,-103],[361,-238],[310,-334],[288,63],[4,39],[-65,82],[-147,47],[-147,111],[-134,216],[39,57],[444,-181],[161,-121],[130,13],[4,41],[50,8],[404,-95],[663,-24],[262,73],[39,-50],[343,-60],[529,97],[37,15],[-81,76],[58,23],[333,40],[47,41],[-104,47],[-131,-25],[-5,59],[206,15],[230,146],[208,-32],[170,41],[155,-35]],[[2345,71875],[88,110],[41,-2],[-48,-81],[-81,-27]],[[6329,71771],[17,60],[29,8],[12,-23],[-58,-45]],[[1749,71599],[12,48],[41,22],[-21,-55],[-32,-15]],[[2605,72101],[-12,19],[30,26],[6,-22],[-24,-23]],[[2614,72047],[-21,27],[16,16],[18,-5],[-13,-38]],[[2212,71833],[22,20],[23,-13],[-8,-7],[-37,0]],[[2576,72034],[24,-5],[-11,-8],[-13,13]],[[2037,71644],[2,6],[26,-23],[-28,17]],[[2553,72008],[12,3],[6,-8],[-18,5]]]}